{"type": "FeatureCollection", "features": [{"type": "Feature", "properties": {"candidate_zone": 3}, "geometry": {"type": "LineString", "coordinates": [[-0.6103856548545793, 51.248979795699135], [-0.6089684383399379, 51.24880864547633], [-0.6065095684511099, 51.24788532259802], [-0.6061103222749302, 51.24765108739625], [-0.6060808784843164, 51.2474384968604]]}}, {"type": "Feature", "properties": {"candidate_zone": 2}, "geometry": {"type": "LineString", "coordinates": [[-0.610060934999061, 51.231417228804176], [-0.6101937422168449, 51.230984223634955], [-0.6106459712972045, 51.23079566510901], [-0.6108434253231646, 51.23050619041661], [-0.6077317814504215, 51.23049376771544], [-0.6063564445379013, 51.23002529479559], [-0.6035525326100395, 51.23023672728043], [-0.6008298162472546, 51.230647036110604], [-0.5975759120814043, 51.231585283341026], [-0.597192021605455, 51.231843229563275]]}}, {"type": "Feature", "properties": {"candidate_zone": 2}, "geometry": {"type": "LineString", "coordinates": [[-0.5986090183996682, 51.23222331000544], [-0.6018991175689402, 51.23180726929288], [-0.610060934999061, 51.231417228804176]]}}, {"type": "Feature", "properties": {"candidate_zone": 3}, "geometry": {"type": "LineString", "coordinates": [[-0.6087998666241042, 51.24774740259709], [-0.6073477481663485, 51.247357309632896], [-0.6060808784843164, 51.2474384968604]]}}, {"type": "Feature", "properties": {"candidate_zone": 3}, "geometry": {"type": "LineString", "coordinates": [[-0.6060808784843164, 51.2474384968604], [-0.605308090583859, 51.24653240311827], [-0.6045307902526188, 51.24616591892357]]}}, {"type": "Feature", "properties": {"candidate_zone": 3}, "geometry": {"type": "LineString", "coordinates": [[-0.6045307902526188, 51.24616591892357], [-0.6047269772372456, 51.245569570163504], [-0.6055759495871695, 51.24469257576953], [-0.6057582061116267, 51.2438678668355]]}}, {"type": "Feature", "properties": {"candidate_zone": 3}, "geometry": {"type": "LineString", "coordinates": [[-0.6057582061116267, 51.2438678668355], [-0.605654594897484, 51.24334407481597]]}}, {"type": "Feature", "properties": {"candidate_zone": 3}, "geometry": {"type": "LineString", "coordinates": [[-0.6057582061116267, 51.2438678668355], [-0.60482336803891, 51.24382099545189], [-0.6044886330823724, 51.24363438560312]]}}, {"type": "Feature", "properties": {"candidate_zone": 3}, "geometry": {"type": "LineString", "coordinates": [[-0.6044886330823724, 51.24363438560312], [-0.6038680844369128, 51.243854374784355], [-0.6027063840972829, 51.243709466590936]]}}, {"type": "Feature", "properties": {"candidate_zone": 4}, "geometry": {"type": "LineString", "coordinates": [[-0.6015854334385511, 51.25360483699596], [-0.6027149112079295, 51.25257156521332]]}}, {"type": "Feature", "properties": {"candidate_zone": 3}, "geometry": {"type": "LineString", "coordinates": [[-0.6025319867942447, 51.24425494274321], [-0.6027063840972829, 51.243709466590936]]}}, {"type": "Feature", "properties": {"candidate_zone": 3}, "geometry": {"type": "LineString", "coordinates": [[-0.5976070691060515, 51.24421726030975], [-0.5997249931313923, 51.243612316581896], [-0.6027063840972829, 51.243709466590936]]}}, {"type": "Feature", "properties": {"candidate_zone": 3}, "geometry": {"type": "LineString", "coordinates": [[-0.6009746198660184, 51.24728350925359], [-0.6018470631185557, 51.2471318111318], [-0.6025394689335924, 51.24663510861011]]}}, {"type": "Feature", "properties": {"candidate_zone": 3}, "geometry": {"type": "LineString", "coordinates": [[-0.6025394689335924, 51.24663510861011], [-0.602748191197588, 51.244742273472056], [-0.6025319867942447, 51.24425494274321]]}}, {"type": "Feature", "properties": {"candidate_zone": 4}, "geometry": {"type": "LineString", "coordinates": [[-0.6008462637744322, 51.25489097460314], [-0.6012724658841586, 51.254506944805684], [-0.6015854334385511, 51.25360483699596]]}}, {"type": "Feature", "properties": {"candidate_zone": 4}, "geometry": {"type": "LineString", "coordinates": [[-0.6015854334385511, 51.25360483699596], [-0.6002815343854911, 51.25319602447609]]}}, {"type": "Feature", "properties": {"candidate_zone": 4}, "geometry": {"type": "LineString", "coordinates": [[-0.6003742107461412, 51.25583506925163], [-0.6008462637744322, 51.25489097460314]]}}, {"type": "Feature", "properties": {"candidate_zone": 4}, "geometry": {"type": "LineString", "coordinates": [[-0.5970257988800245, 51.25474491894357], [-0.5989432685809661, 51.25463850504229], [-0.6008462637744322, 51.25489097460314]]}}, {"type": "Feature", "properties": {"candidate_zone": 4}, "geometry": {"type": "LineString", "coordinates": [[-0.5998772319052775, 51.25657300337151], [-0.6002706807390704, 51.25623054428295], [-0.6003742107461412, 51.25583506925163]]}}, {"type": "Feature", "properties": {"candidate_zone": 4}, "geometry": {"type": "LineString", "coordinates": [[-0.5941986699994841, 51.25606670906515], [-0.5991304105011164, 51.25561375249141], [-0.6003742107461412, 51.25583506925163]]}}, {"type": "Feature", "properties": {"candidate_zone": 2}, "geometry": {"type": "LineString", "coordinates": [[-0.5989885295570263, 51.23800196670175], [-0.6001634034750516, 51.237782921466476], [-0.6007896771191593, 51.23690460618294]]}}, {"type": "Feature", "properties": {"candidate_zone": 2}, "geometry": {"type": "LineString", "coordinates": [[-0.6007896771191593, 51.23690460618294], [-0.6005139946530198, 51.2356145418002]]}}, {"type": "Feature", "properties": {"candidate_zone": 4}, "geometry": {"type": "LineString", "coordinates": [[-0.598090640906093, 51.25372969505403], [-0.5996256109864196, 51.25376505136919], [-0.6002815343854911, 51.25319602447609]]}}, {"type": "Feature", "properties": {"candidate_zone": 4}, "geometry": {"type": "LineString", "coordinates": [[-0.6002815343854911, 51.25319602447609], [-0.6005275579136076, 51.25276485711146], [-0.6003192995123375, 51.2525864234133], [-0.5989834360094732, 51.25232680312949], [-0.597730177495457, 51.252269634006055]]}}, {"type": "Feature", "properties": {"candidate_zone": 2}, "geometry": {"type": "LineString", "coordinates": [[-0.6005139946530198, 51.2356145418002], [-0.6006091030799603, 51.23499811868999], [-0.6002283050422753, 51.23464884961724]]}}, {"type": "Feature", "properties": {"candidate_zone": 4}, "geometry": {"type": "LineString", "coordinates": [[-0.5962137035255246, 51.25750276223817], [-0.5994572119231798, 51.257316972419694], [-0.5998765350619015, 51.25697346877601], [-0.5998772319052775, 51.25657300337151]]}}, {"type": "Feature", "properties": {"candidate_zone": 4}, "geometry": {"type": "LineString", "coordinates": [[-0.5998772319052775, 51.25657300337151], [-0.5990809440969486, 51.256495381294805], [-0.5945410237199628, 51.25678447071727]]}}, {"type": "Feature", "properties": {"candidate_zone": 2}, "geometry": {"type": "LineString", "coordinates": [[-0.5987229343972166, 51.23506641107058], [-0.6002283050422753, 51.23464884961724]]}}, {"type": "Feature", "properties": {"candidate_zone": 2}, "geometry": {"type": "LineString", "coordinates": [[-0.6002283050422753, 51.23464884961724], [-0.5991911091993181, 51.233269951862574]]}}, {"type": "Feature", "properties": {"candidate_zone": 2}, "geometry": {"type": "LineString", "coordinates": [[-0.5983755448629362, 51.23349107120068], [-0.5991911091993181, 51.233269951862574]]}}, {"type": "Feature", "properties": {"candidate_zone": 2}, "geometry": {"type": "LineString", "coordinates": [[-0.5991911091993181, 51.233269951862574], [-0.5986090183996682, 51.23222331000544]]}}, {"type": "Feature", "properties": {"candidate_zone": 2}, "geometry": {"type": "LineString", "coordinates": [[-0.5989885295570263, 51.23800196670175], [-0.5989889078538678, 51.23588032039786]]}}, {"type": "Feature", "properties": {"candidate_zone": 2}, "geometry": {"type": "LineString", "coordinates": [[-0.5985648211214742, 51.24087270559074], [-0.5971918885874221, 51.240396908882644], [-0.596291663801819, 51.240287232278796], [-0.5959607400740977, 51.24003652812539]]}}, {"type": "Feature", "properties": {"candidate_zone": 4}, "geometry": {"type": "LineString", "coordinates": [[-0.598090640906093, 51.25372969505403], [-0.597730177495457, 51.252269634006055]]}}, {"type": "Feature", "properties": {"candidate_zone": 2}, "geometry": {"type": "LineString", "coordinates": [[-0.5977561321054723, 51.23510686843283], [-0.5983891163024418, 51.23417276575542], [-0.5983755448629362, 51.23349107120068]]}}, {"type": "Feature", "properties": {"candidate_zone": 2}, "geometry": {"type": "LineString", "coordinates": [[-0.5983755448629362, 51.23349107120068], [-0.5976068468609262, 51.233438228975444], [-0.5974628760490867, 51.23281684202631]]}}, {"type": "Feature", "properties": {"candidate_zone": 4}, "geometry": {"type": "LineString", "coordinates": [[-0.597730177495457, 51.252269634006055], [-0.5964365964272305, 51.25210431448094]]}}, {"type": "Feature", "properties": {"candidate_zone": 3}, "geometry": {"type": "LineString", "coordinates": [[-0.5963701296503588, 51.24476598435678], [-0.5976070691060515, 51.24421726030975]]}}, {"type": "Feature", "properties": {"candidate_zone": 2}, "geometry": {"type": "LineString", "coordinates": [[-0.5974628760490867, 51.23281684202631], [-0.5978354167080465, 51.2325100674271]]}}, {"type": "Feature", "properties": {"candidate_zone": 2}, "geometry": {"type": "LineString", "coordinates": [[-0.5973483185132716, 51.235315082713115], [-0.5977561321054723, 51.23510686843283]]}}, {"type": "Feature", "properties": {"candidate_zone": 2}, "geometry": {"type": "LineString", "coordinates": [[-0.5976335619811004, 51.23820562392382], [-0.5975337753087026, 51.23603960815078]]}}, {"type": "Feature", "properties": {"candidate_zone": 4}, "geometry": {"type": "LineString", "coordinates": [[-0.5937884008239825, 51.255180963534215], [-0.5970257988800245, 51.25474491894357]]}}, {"type": "Feature", "properties": {"candidate_zone": 2}, "geometry": {"type": "LineString", "coordinates": [[-0.5975337753087026, 51.23603960815078], [-0.5973483185132716, 51.235315082713115]]}}, {"type": "Feature", "properties": {"candidate_zone": 4}, "geometry": {"type": "LineString", "coordinates": [[-0.5969059156512346, 51.25387624391591], [-0.5963470751315857, 51.252587639539435]]}}, {"type": "Feature", "properties": {"candidate_zone": 2}, "geometry": {"type": "LineString", "coordinates": [[-0.5940419147315117, 51.236730820823325], [-0.5955070229936094, 51.236290013819826], [-0.5965599010795065, 51.23552416321649], [-0.5973483185132716, 51.235315082713115]]}}, {"type": "Feature", "properties": {"candidate_zone": 4}, "geometry": {"type": "LineString", "coordinates": [[-0.5963470751315857, 51.252587639539435], [-0.5964365964272305, 51.25210431448094]]}}, {"type": "Feature", "properties": {"candidate_zone": 4}, "geometry": {"type": "LineString", "coordinates": [[-0.5964365964272305, 51.25210431448094], [-0.5960336254852461, 51.250435541286144]]}}, {"type": "Feature", "properties": {"candidate_zone": 4}, "geometry": {"type": "LineString", "coordinates": [[-0.5950828455362557, 51.25849958219451], [-0.5962865246922726, 51.258413357747855], [-0.5962137035255246, 51.25750276223817]]}}, {"type": "Feature", "properties": {"candidate_zone": 4}, "geometry": {"type": "LineString", "coordinates": [[-0.5948877852592899, 51.25758119930406], [-0.5962137035255246, 51.25750276223817]]}}, {"type": "Feature", "properties": {"candidate_zone": 4}, "geometry": {"type": "LineString", "coordinates": [[-0.593822376094102, 51.25382373554929], [-0.5939183113837463, 51.253073966783525], [-0.5963470751315857, 51.252587639539435]]}}, {"type": "Feature", "properties": {"candidate_zone": 4}, "geometry": {"type": "LineString", "coordinates": [[-0.5960529333132237, 51.26178873661365], [-0.5950037439302899, 51.259874403030665]]}}, {"type": "Feature", "properties": {"candidate_zone": 3}, "geometry": {"type": "LineString", "coordinates": [[-0.5959856049626275, 51.2454160623931], [-0.5963701296503588, 51.24476598435678]]}}, {"type": "Feature", "properties": {"candidate_zone": 3}, "geometry": {"type": "LineString", "coordinates": [[-0.5960336254852461, 51.250435541286144], [-0.5950157346747099, 51.25033329290879]]}}, {"type": "Feature", "properties": {"candidate_zone": 3}, "geometry": {"type": "LineString", "coordinates": [[-0.5947615788097541, 51.24664193735099], [-0.5959856049626275, 51.2454160623931]]}}, {"type": "Feature", "properties": {"candidate_zone": 2}, "geometry": {"type": "LineString", "coordinates": [[-0.5952024628601521, 51.239961210192384], [-0.5959607400740977, 51.24003652812539]]}}, {"type": "Feature", "properties": {"candidate_zone": 2}, "geometry": {"type": "LineString", "coordinates": [[-0.5950690081548727, 51.234243017472714], [-0.5955329363396712, 51.23390641605778], [-0.5959348524144716, 51.23312529403301]]}}, {"type": "Feature", "properties": {"candidate_zone": 4}, "geometry": {"type": "LineString", "coordinates": [[-0.5950037439302899, 51.259874403030665], [-0.5950828455362557, 51.25849958219451]]}}, {"type": "Feature", "properties": {"candidate_zone": 4}, "geometry": {"type": "LineString", "coordinates": [[-0.5933709926736251, 51.26065314876098], [-0.5945823648934134, 51.2599375563932], [-0.5950037439302899, 51.259874403030665]]}}, {"type": "Feature", "properties": {"candidate_zone": 4}, "geometry": {"type": "LineString", "coordinates": [[-0.5948239534616768, 51.25820053930977], [-0.5948877852592899, 51.25758119930406]]}}, {"type": "Feature", "properties": {"candidate_zone": 4}, "geometry": {"type": "LineString", "coordinates": [[-0.5948877852592899, 51.25758119930406], [-0.5945410237199628, 51.25678447071727]]}}, {"type": "Feature", "properties": {"candidate_zone": 4}, "geometry": {"type": "LineString", "coordinates": [[-0.5948239534616768, 51.25820053930977], [-0.5939508965293943, 51.25836050014375], [-0.5935051136263012, 51.25807920749292], [-0.5932135927404388, 51.25732090774109]]}}, {"type": "Feature", "properties": {"candidate_zone": 3}, "geometry": {"type": "LineString", "coordinates": [[-0.5950157346747099, 51.25033329290879], [-0.59392894185821, 51.25039451068754], [-0.5920604308219698, 51.25002597602139], [-0.5914498070545907, 51.250098236522476], [-0.5895409953630183, 51.249604537936456]]}}, {"type": "Feature", "properties": {"candidate_zone": 3}, "geometry": {"type": "LineString", "coordinates": [[-0.5950157346747099, 51.25033329290879], [-0.5949559571748844, 51.248897489017004]]}}, {"type": "Feature", "properties": {"candidate_zone": 2}, "geometry": {"type": "LineString", "coordinates": [[-0.5948345736460775, 51.23962008723277], [-0.5952329300182265, 51.23920696831558], [-0.595313748580221, 51.23877594364771]]}}, {"type": "Feature", "properties": {"candidate_zone": 2}, "geometry": {"type": "LineString", "coordinates": [[-0.595313748580221, 51.23877594364771], [-0.5940419147315117, 51.236730820823325]]}}, {"type": "Feature", "properties": {"candidate_zone": 3}, "geometry": {"type": "LineString", "coordinates": [[-0.5949559571748844, 51.248897489017004], [-0.5932464218994111, 51.2484997716758], [-0.5928298970378773, 51.248166701020914]]}}, {"type": "Feature", "properties": {"candidate_zone": 3}, "geometry": {"type": "LineString", "coordinates": [[-0.5949559571748844, 51.248897489017004], [-0.5949696853437573, 51.24762115893849]]}}, {"type": "Feature", "properties": {"candidate_zone": 3}, "geometry": {"type": "LineString", "coordinates": [[-0.5928298970378773, 51.248166701020914], [-0.5932671026485992, 51.24793964564617], [-0.5949696853437573, 51.24762115893849]]}}, {"type": "Feature", "properties": {"candidate_zone": 3}, "geometry": {"type": "LineString", "coordinates": [[-0.5949696853437573, 51.24762115893849], [-0.5950463513347103, 51.2469723428276], [-0.5947615788097541, 51.24664193735099]]}}, {"type": "Feature", "properties": {"candidate_zone": 2}, "geometry": {"type": "LineString", "coordinates": [[-0.5952024628601521, 51.239961210192384], [-0.5949219316393287, 51.239785315950854]]}}, {"type": "Feature", "properties": {"candidate_zone": 4}, "geometry": {"type": "LineString", "coordinates": [[-0.5945410237199628, 51.25678447071727], [-0.5941687625935854, 51.25634971398327]]}}, {"type": "Feature", "properties": {"candidate_zone": 2}, "geometry": {"type": "LineString", "coordinates": [[-0.5949219316393287, 51.239785315950854], [-0.5948345736460775, 51.23962008723277]]}}, {"type": "Feature", "properties": {"candidate_zone": 2}, "geometry": {"type": "LineString", "coordinates": [[-0.5936602042261682, 51.23658453337656], [-0.5950690081548727, 51.234243017472714]]}}, {"type": "Feature", "properties": {"candidate_zone": 2}, "geometry": {"type": "LineString", "coordinates": [[-0.592491695435199, 51.23443111353242], [-0.5938283689199315, 51.234046023352036], [-0.5946941039032231, 51.23407800981177], [-0.5950690081548727, 51.234243017472714]]}}, {"type": "Feature", "properties": {"candidate_zone": 2}, "geometry": {"type": "LineString", "coordinates": [[-0.5948345736460775, 51.23962008723277], [-0.5926358145497302, 51.23872079312357]]}}, {"type": "Feature", "properties": {"candidate_zone": 4}, "geometry": {"type": "LineString", "coordinates": [[-0.5941986699994841, 51.25606670906515], [-0.5937884008239825, 51.255180963534215]]}}, {"type": "Feature", "properties": {"candidate_zone": 4}, "geometry": {"type": "LineString", "coordinates": [[-0.5932135927404388, 51.25732090774109], [-0.5931087183395354, 51.25675764220319], [-0.5934130061132499, 51.2565143121255], [-0.5941687625935854, 51.25634971398327]]}}, {"type": "Feature", "properties": {"candidate_zone": 3}, "geometry": {"type": "LineString", "coordinates": [[-0.5936195238398692, 51.255112050549016], [-0.591477737889087, 51.25531856355105]]}}, {"type": "Feature", "properties": {"candidate_zone": 3}, "geometry": {"type": "LineString", "coordinates": [[-0.5936195238398692, 51.255112050549016], [-0.5933034022473623, 51.25433747081725]]}}, {"type": "Feature", "properties": {"candidate_zone": 4}, "geometry": {"type": "LineString", "coordinates": [[-0.5919670342098514, 51.261759461533316], [-0.5933709926736251, 51.26065314876098]]}}, {"type": "Feature", "properties": {"candidate_zone": 2}, "geometry": {"type": "LineString", "coordinates": [[-0.5940419147315117, 51.236730820823325], [-0.5936602042261682, 51.23658453337656]]}}, {"type": "Feature", "properties": {"candidate_zone": 4}, "geometry": {"type": "LineString", "coordinates": [[-0.5932135927404388, 51.25732090774109], [-0.59197094334826, 51.257375812499006], [-0.5914527861558596, 51.257067635130035]]}}, {"type": "Feature", "properties": {"candidate_zone": 3}, "geometry": {"type": "LineString", "coordinates": [[-0.5933034022473623, 51.25433747081725], [-0.5929366285463016, 51.25387183828023]]}}, {"type": "Feature", "properties": {"candidate_zone": 2}, "geometry": {"type": "LineString", "coordinates": [[-0.5936602042261682, 51.23658453337656], [-0.5926358144319288, 51.23662922856284]]}}, {"type": "Feature", "properties": {"candidate_zone": 3}, "geometry": {"type": "LineString", "coordinates": [[-0.5929366285463016, 51.25387183828023], [-0.5923019437720178, 51.25358060903435]]}}, {"type": "Feature", "properties": {"candidate_zone": 3}, "geometry": {"type": "LineString", "coordinates": [[-0.5903397378396824, 51.248202661989104], [-0.5928298970378773, 51.248166701020914]]}}, {"type": "Feature", "properties": {"candidate_zone": 3}, "geometry": {"type": "LineString", "coordinates": [[-0.590999387099367, 51.25513704818287], [-0.5923019437720178, 51.25358060903435]]}}, {"type": "Feature", "properties": {"candidate_zone": 3}, "geometry": {"type": "LineString", "coordinates": [[-0.5923019437720178, 51.25358060903435], [-0.5918660768125771, 51.25308491105907], [-0.5915063074449268, 51.25295512529098]]}}, {"type": "Feature", "properties": {"candidate_zone": 2}, "geometry": {"type": "LineString", "coordinates": [[-0.5926358145497302, 51.23872079312357], [-0.5929224517316404, 51.23810789992114], [-0.5927055106308932, 51.23749325358647], [-0.5914939128845268, 51.23758857039601], [-0.5907451073610643, 51.237923075851526]]}}, {"type": "Feature", "properties": {"candidate_zone": 2}, "geometry": {"type": "LineString", "coordinates": [[-0.591204342909067, 51.23683577870682], [-0.5922279143523344, 51.23678494532205], [-0.5926358144319288, 51.23662922856284]]}}, {"type": "Feature", "properties": {"candidate_zone": 2}, "geometry": {"type": "LineString", "coordinates": [[-0.5926358144319288, 51.23662922856284], [-0.592491695435199, 51.23443111353242]]}}, {"type": "Feature", "properties": {"candidate_zone": 3}, "geometry": {"type": "LineString", "coordinates": [[-0.5893137631450569, 51.26612897729273], [-0.589820903786073, 51.265600226227875], [-0.5915936966569292, 51.26550100073456]]}}, {"type": "Feature", "properties": {"candidate_zone": 2}, "geometry": {"type": "LineString", "coordinates": [[-0.5908179005444119, 51.23462665173774], [-0.592491695435199, 51.23443111353242]]}}, {"type": "Feature", "properties": {"candidate_zone": 4}, "geometry": {"type": "LineString", "coordinates": [[-0.5914527861558596, 51.257067635130035], [-0.5907665255516381, 51.25704845196594], [-0.5899810811311141, 51.256706654008816]]}}, {"type": "Feature", "properties": {"candidate_zone": 3}, "geometry": {"type": "LineString", "coordinates": [[-0.5892290521553929, 51.25364748059337], [-0.5900464979628139, 51.253603242185896], [-0.5915063074449268, 51.25295512529098]]}}, {"type": "Feature", "properties": {"candidate_zone": 3}, "geometry": {"type": "LineString", "coordinates": [[-0.5915063074449268, 51.25295512529098], [-0.5905355594922854, 51.252202757171865]]}}, {"type": "Feature", "properties": {"candidate_zone": 3}, "geometry": {"type": "LineString", "coordinates": [[-0.5875981789607091, 51.25469489243724], [-0.5883464605947624, 51.25493238018845], [-0.590999387099367, 51.25513704818287]]}}, {"type": "Feature", "properties": {"candidate_zone": 2}, "geometry": {"type": "LineString", "coordinates": [[-0.589664427174614, 51.23701429427076], [-0.591204342909067, 51.23683577870682]]}}, {"type": "Feature", "properties": {"candidate_zone": 4}, "geometry": {"type": "LineString", "coordinates": [[-0.5899810811311141, 51.256706654008816], [-0.5898526525156731, 51.25611472076028], [-0.5905629079681305, 51.256180207885585]]}}, {"type": "Feature", "properties": {"candidate_zone": 3}, "geometry": {"type": "LineString", "coordinates": [[-0.5890373433660009, 51.25307400372841], [-0.5905355594922854, 51.252202757171865]]}}, {"type": "Feature", "properties": {"candidate_zone": 3}, "geometry": {"type": "LineString", "coordinates": [[-0.5905355594922854, 51.252202757171865], [-0.5897376245192709, 51.25161801995423]]}}, {"type": "Feature", "properties": {"candidate_zone": 2}, "geometry": {"type": "LineString", "coordinates": [[-0.590681321888728, 51.23793490929479], [-0.5907451073610643, 51.237923075851526]]}}, {"type": "Feature", "properties": {"candidate_zone": 2}, "geometry": {"type": "LineString", "coordinates": [[-0.590681321888728, 51.23793490929479], [-0.5892289441449385, 51.23724191495279]]}}, {"type": "Feature", "properties": {"candidate_zone": 3}, "geometry": {"type": "LineString", "coordinates": [[-0.5895409953630183, 51.249604537936456], [-0.5903397378396824, 51.248202661989104]]}}, {"type": "Feature", "properties": {"candidate_zone": 3}, "geometry": {"type": "LineString", "coordinates": [[-0.5903397378396824, 51.248202661989104], [-0.5892814441014698, 51.248051140598875], [-0.5887264150088808, 51.247669745073686]]}}, {"type": "Feature", "properties": {"candidate_zone": 2}, "geometry": {"type": "LineString", "coordinates": [[-0.5886968220315727, 51.235292309970326], [-0.5905914040048437, 51.23480586998789]]}}, {"type": "Feature", "properties": {"candidate_zone": 3}, "geometry": {"type": "LineString", "coordinates": [[-0.5893137631450569, 51.26612897729273], [-0.5881011680721798, 51.26596629812568]]}}, {"type": "Feature", "properties": {"candidate_zone": 3}, "geometry": {"type": "LineString", "coordinates": [[-0.5887560770347628, 51.252001883765466], [-0.5897376245192709, 51.25161801995423]]}}, {"type": "Feature", "properties": {"candidate_zone": 3}, "geometry": {"type": "LineString", "coordinates": [[-0.5897376245192709, 51.25161801995423], [-0.5894379656414037, 51.250829662769135], [-0.5890747159182009, 51.250672291490986], [-0.5882784173035897, 51.24970242828779], [-0.5882436848640328, 51.24931674007711]]}}, {"type": "Feature", "properties": {"candidate_zone": 3}, "geometry": {"type": "LineString", "coordinates": [[-0.5895409953630183, 51.249604537936456], [-0.5882436848640328, 51.24931674007711]]}}, {"type": "Feature", "properties": {"candidate_zone": 3}, "geometry": {"type": "LineString", "coordinates": [[-0.5876481957020404, 51.25453866788564], [-0.5889581375925464, 51.253999121058946], [-0.5892290521553929, 51.25364748059337]]}}, {"type": "Feature", "properties": {"candidate_zone": 2}, "geometry": {"type": "LineString", "coordinates": [[-0.5892289441449385, 51.23724191495279], [-0.589664427174614, 51.23701429427076]]}}, {"type": "Feature", "properties": {"candidate_zone": 3}, "geometry": {"type": "LineString", "coordinates": [[-0.5890373433660009, 51.25307400372841], [-0.5886147897135359, 51.25283815612228], [-0.5883345674197266, 51.252333045292595]]}}, {"type": "Feature", "properties": {"candidate_zone": 3}, "geometry": {"type": "LineString", "coordinates": [[-0.5888025286768324, 51.25876028260453], [-0.5886870823433872, 51.25807551360752], [-0.5875339032724265, 51.25804940529425]]}}, {"type": "Feature", "properties": {"candidate_zone": 2}, "geometry": {"type": "LineString", "coordinates": [[-0.5892289441449385, 51.23724191495279], [-0.5885038780960333, 51.23717588278789]]}}, {"type": "Feature", "properties": {"candidate_zone": 3}, "geometry": {"type": "LineString", "coordinates": [[-0.5883345674197266, 51.252333045292595], [-0.5887560770347628, 51.252001883765466]]}}, {"type": "Feature", "properties": {"candidate_zone": 2}, "geometry": {"type": "LineString", "coordinates": [[-0.5867907970711683, 51.23439222534769], [-0.5892179277334476, 51.23375485834724]]}}, {"type": "Feature", "properties": {"candidate_zone": 2}, "geometry": {"type": "LineString", "coordinates": [[-0.5861572318167774, 51.233274704055106], [-0.5877744032871322, 51.23233965140318], [-0.5890082833721494, 51.23228762533579], [-0.5895649295139468, 51.232759041577104], [-0.5892179277334476, 51.23375485834724]]}}, {"type": "Feature", "properties": {"candidate_zone": 3}, "geometry": {"type": "LineString", "coordinates": [[-0.5881011680721798, 51.26596629812568], [-0.5882234839221165, 51.2646429652527]]}}, {"type": "Feature", "properties": {"candidate_zone": 3}, "geometry": {"type": "LineString", "coordinates": [[-0.5882234839221165, 51.2646429652527], [-0.5850432945091182, 51.264307153436825]]}}, {"type": "Feature", "properties": {"candidate_zone": 3}, "geometry": {"type": "LineString", "coordinates": [[-0.5881011680721798, 51.26596629812568], [-0.5850927214720343, 51.26564158399941], [-0.5848389143939605, 51.26542686851586], [-0.5850432945091182, 51.264307153436825]]}}, {"type": "Feature", "properties": {"candidate_zone": 3}, "geometry": {"type": "LineString", "coordinates": [[-0.5883345674197266, 51.252333045292595], [-0.587957284610395, 51.25211726578447]]}}, {"type": "Feature", "properties": {"candidate_zone": 2}, "geometry": {"type": "LineString", "coordinates": [[-0.5874743263006843, 51.23550244171484], [-0.5886968220315727, 51.235292309970326]]}}, {"type": "Feature", "properties": {"candidate_zone": 3}, "geometry": {"type": "LineString", "coordinates": [[-0.5881087455582462, 51.24913852919551], [-0.5883048291174399, 51.24858457010362], [-0.5881856575546666, 51.24822027277928]]}}, {"type": "Feature", "properties": {"candidate_zone": 3}, "geometry": {"type": "LineString", "coordinates": [[-0.5861156983667517, 51.24888075421455], [-0.5865498240767371, 51.24832506375573], [-0.5881856575546666, 51.24822027277928]]}}, {"type": "Feature", "properties": {"candidate_zone": 2}, "geometry": {"type": "LineString", "coordinates": [[-0.5875141204341269, 51.237422010499735], [-0.5885038780960333, 51.23717588278789]]}}, {"type": "Feature", "properties": {"candidate_zone": 2}, "geometry": {"type": "LineString", "coordinates": [[-0.5885038780960333, 51.23717588278789], [-0.5874743263006843, 51.23550244171484]]}}, {"type": "Feature", "properties": {"candidate_zone": 3}, "geometry": {"type": "LineString", "coordinates": [[-0.5881087455582462, 51.24913852919551], [-0.5873831665206785, 51.24920715759352], [-0.5861156983667517, 51.24888075421455]]}}, {"type": "Feature", "properties": {"candidate_zone": 2}, "geometry": {"type": "LineString", "coordinates": [[-0.5872540517898085, 51.23977217281643], [-0.5883576952462539, 51.23986538167882]]}}, {"type": "Feature", "properties": {"candidate_zone": 3}, "geometry": {"type": "LineString", "coordinates": [[-0.5867348437862752, 51.25240721493234], [-0.587957284610395, 51.25211726578447]]}}, {"type": "Feature", "properties": {"candidate_zone": 3}, "geometry": {"type": "LineString", "coordinates": [[-0.5875981789607091, 51.25469489243724], [-0.5876481957020404, 51.25453866788564]]}}, {"type": "Feature", "properties": {"candidate_zone": 3}, "geometry": {"type": "LineString", "coordinates": [[-0.5876481957020404, 51.25453866788564], [-0.5867348437862752, 51.25240721493234]]}}, {"type": "Feature", "properties": {"candidate_zone": 3}, "geometry": {"type": "LineString", "coordinates": [[-0.5873135251154334, 51.25864632241352], [-0.5875339032724265, 51.25804940529425]]}}, {"type": "Feature", "properties": {"candidate_zone": 3}, "geometry": {"type": "LineString", "coordinates": [[-0.5875339032724265, 51.25804940529425], [-0.587083342427152, 51.256148754787624], [-0.5874961711305334, 51.25473294029963]]}}, {"type": "Feature", "properties": {"candidate_zone": 3}, "geometry": {"type": "LineString", "coordinates": [[-0.5875981789607091, 51.25469489243724], [-0.5874961711305334, 51.25473294029963]]}}, {"type": "Feature", "properties": {"candidate_zone": 3}, "geometry": {"type": "LineString", "coordinates": [[-0.5874961711305334, 51.25473294029963], [-0.5870765781890376, 51.25470100074606], [-0.5851771559820312, 51.25390683069538], [-0.5804466647688546, 51.2524820371888]]}}, {"type": "Feature", "properties": {"candidate_zone": 3}, "geometry": {"type": "LineString", "coordinates": [[-0.5873135251154334, 51.25864632241352], [-0.5859686632767076, 51.25862114975185], [-0.5858456515222307, 51.25881576974731], [-0.5858008320525067, 51.259101658547785], [-0.5860503755869383, 51.259246421530136], [-0.5871306764935703, 51.259154381641146]]}}, {"type": "Feature", "properties": {"candidate_zone": 3}, "geometry": {"type": "LineString", "coordinates": [[-0.5868012971944597, 51.26021165611968], [-0.5871306764935703, 51.259154381641146]]}}, {"type": "Feature", "properties": {"candidate_zone": 2}, "geometry": {"type": "LineString", "coordinates": [[-0.5868118107312932, 51.237717787164], [-0.5875141204341269, 51.237422010499735]]}}, {"type": "Feature", "properties": {"candidate_zone": 2}, "geometry": {"type": "LineString", "coordinates": [[-0.5875141204341269, 51.237422010499735], [-0.5867701015129726, 51.23643438804862]]}}, {"type": "Feature", "properties": {"candidate_zone": 3}, "geometry": {"type": "LineString", "coordinates": [[-0.5865751418232068, 51.26043149026447], [-0.5868012971944597, 51.26021165611968]]}}, {"type": "Feature", "properties": {"candidate_zone": 2}, "geometry": {"type": "LineString", "coordinates": [[-0.5874743263006843, 51.23550244171484], [-0.5874501239374074, 51.23549896823125]]}}, {"type": "Feature", "properties": {"candidate_zone": 2}, "geometry": {"type": "LineString", "coordinates": [[-0.586627750971621, 51.23571677296131], [-0.5874501239374074, 51.23549896823125]]}}, {"type": "Feature", "properties": {"candidate_zone": 2}, "geometry": {"type": "LineString", "coordinates": [[-0.5874501239374074, 51.23549896823125], [-0.5871362446780434, 51.23492978756715], [-0.5867083970646864, 51.23471037450911]]}}, {"type": "Feature", "properties": {"candidate_zone": 2}, "geometry": {"type": "LineString", "coordinates": [[-0.5872540517898085, 51.23977217281643], [-0.586718599234918, 51.23946222481684], [-0.5863170815725273, 51.23882840005581]]}}, {"type": "Feature", "properties": {"candidate_zone": 3}, "geometry": {"type": "LineString", "coordinates": [[-0.586220733735925, 51.26133773751505], [-0.5867217054088509, 51.261102472716146], [-0.5865751418232068, 51.26043149026447]]}}, {"type": "Feature", "properties": {"candidate_zone": 3}, "geometry": {"type": "LineString", "coordinates": [[-0.5867348437862752, 51.25240721493234], [-0.5864968694416246, 51.251781483279906]]}}, {"type": "Feature", "properties": {"candidate_zone": 3}, "geometry": {"type": "LineString", "coordinates": [[-0.5857014057476119, 51.261942980893274], [-0.5859241166501447, 51.26146915281757], [-0.586220733735925, 51.26133773751505]]}}, {"type": "Feature", "properties": {"candidate_zone": 3}, "geometry": {"type": "LineString", "coordinates": [[-0.5864968694416246, 51.251781483279906], [-0.5858367369536669, 51.25117290816733], [-0.585336659782376, 51.25007467087]]}}, {"type": "Feature", "properties": {"candidate_zone": 2}, "geometry": {"type": "LineString", "coordinates": [[-0.5864940779087622, 51.237661912771024], [-0.5860662397606669, 51.236850000395336], [-0.5863305166919897, 51.236548686577684], [-0.5867701015129726, 51.23643438804862]]}}, {"type": "Feature", "properties": {"candidate_zone": 2}, "geometry": {"type": "LineString", "coordinates": [[-0.5867701015129726, 51.23643438804862], [-0.586627750971621, 51.23571677296131]]}}, {"type": "Feature", "properties": {"candidate_zone": 2}, "geometry": {"type": "LineString", "coordinates": [[-0.5866439602840179, 51.23458850692602], [-0.5867907970711683, 51.23439222534769]]}}, {"type": "Feature", "properties": {"candidate_zone": 2}, "geometry": {"type": "LineString", "coordinates": [[-0.5867907970711683, 51.23439222534769], [-0.5861572318167774, 51.233274704055106]]}}, {"type": "Feature", "properties": {"candidate_zone": 2}, "geometry": {"type": "LineString", "coordinates": [[-0.5867083970646864, 51.23471037450911], [-0.5866439602840179, 51.23458850692602]]}}, {"type": "Feature", "properties": {"candidate_zone": 2}, "geometry": {"type": "LineString", "coordinates": [[-0.5857809043451252, 51.23794658528331], [-0.5864940779087622, 51.237661912771024]]}}, {"type": "Feature", "properties": {"candidate_zone": 3}, "geometry": {"type": "LineString", "coordinates": [[-0.5861156983667517, 51.24888075421455], [-0.584768527366674, 51.24869393292957]]}}, {"type": "Feature", "properties": {"candidate_zone": 3}, "geometry": {"type": "LineString", "coordinates": [[-0.5855052206119385, 51.26218777686902], [-0.5857014057476119, 51.261942980893274]]}}, {"type": "Feature", "properties": {"candidate_zone": 2}, "geometry": {"type": "LineString", "coordinates": [[-0.5863170815725273, 51.23882840005581], [-0.5855717187805632, 51.238857170857756]]}}, {"type": "Feature", "properties": {"candidate_zone": 3}, "geometry": {"type": "LineString", "coordinates": [[-0.5852136583722066, 51.26277030221031], [-0.584993188246564, 51.262387816044175], [-0.5855052206119385, 51.26218777686902]]}}, {"type": "Feature", "properties": {"candidate_zone": 2}, "geometry": {"type": "LineString", "coordinates": [[-0.5823046942297715, 51.234121496071154], [-0.5861572318167774, 51.233274704055106]]}}, {"type": "Feature", "properties": {"candidate_zone": 3}, "geometry": {"type": "LineString", "coordinates": [[-0.5850432945091182, 51.264307153436825], [-0.5849882727085838, 51.26318103635514], [-0.5852136583722066, 51.26277030221031]]}}, {"type": "Feature", "properties": {"candidate_zone": 2}, "geometry": {"type": "LineString", "coordinates": [[-0.5854009067557733, 51.237889715919515], [-0.5857809043451252, 51.23794658528331]]}}, {"type": "Feature", "properties": {"candidate_zone": 3}, "geometry": {"type": "LineString", "coordinates": [[-0.585336659782376, 51.25007467087], [-0.5847006408432647, 51.24925645032757], [-0.584768527366674, 51.24869393292957]]}}, {"type": "Feature", "properties": {"candidate_zone": 2}, "geometry": {"type": "LineString", "coordinates": [[-0.5838970104080625, 51.23913645776609], [-0.5846462301716637, 51.23923046470784], [-0.5855717187805632, 51.238857170857756]]}}, {"type": "Feature", "properties": {"candidate_zone": 2}, "geometry": {"type": "LineString", "coordinates": [[-0.5855717187805632, 51.238857170857756], [-0.5852475704256567, 51.238290025173605]]}}, {"type": "Feature", "properties": {"candidate_zone": 2}, "geometry": {"type": "LineString", "coordinates": [[-0.5853588934410673, 51.237904057456305], [-0.5854009067557733, 51.237889715919515]]}}, {"type": "Feature", "properties": {"candidate_zone": 2}, "geometry": {"type": "LineString", "coordinates": [[-0.5854009067557733, 51.237889715919515], [-0.5854475402179641, 51.23763534532999], [-0.5845700319112528, 51.23618911315644], [-0.5836401265277802, 51.23625000516994]]}}, {"type": "Feature", "properties": {"candidate_zone": 2}, "geometry": {"type": "LineString", "coordinates": [[-0.5853588934410673, 51.237904057456305], [-0.5845969359958001, 51.23779540453836]]}}, {"type": "Feature", "properties": {"candidate_zone": 2}, "geometry": {"type": "LineString", "coordinates": [[-0.5836937244268093, 51.23876273683331], [-0.5841916129336683, 51.238438088426044], [-0.5852475704256567, 51.238290025173605]]}}, {"type": "Feature", "properties": {"candidate_zone": 2}, "geometry": {"type": "LineString", "coordinates": [[-0.5836937244268093, 51.23876273683331], [-0.583283232093613, 51.23847983664219], [-0.583379364066313, 51.238302929521865], [-0.5845969359958001, 51.23779540453836]]}}, {"type": "Feature", "properties": {"candidate_zone": 2}, "geometry": {"type": "LineString", "coordinates": [[-0.5845969359958001, 51.23779540453836], [-0.5839981015034078, 51.237449918689784]]}}, {"type": "Feature", "properties": {"candidate_zone": 2}, "geometry": {"type": "LineString", "coordinates": [[-0.5839981015034078, 51.237449918689784], [-0.5836553378314245, 51.23748928284392], [-0.582796916926642, 51.23705418049915], [-0.5821745359123505, 51.23619292956198]]}}, {"type": "Feature", "properties": {"candidate_zone": 2}, "geometry": {"type": "LineString", "coordinates": [[-0.5839981015034078, 51.237449918689784], [-0.5836401265277802, 51.23625000516994]]}}, {"type": "Feature", "properties": {"candidate_zone": 2}, "geometry": {"type": "LineString", "coordinates": [[-0.5836401265277802, 51.23625000516994], [-0.5832517714340287, 51.235989644443045]]}}, {"type": "Feature", "properties": {"candidate_zone": 2}, "geometry": {"type": "LineString", "coordinates": [[-0.5821745359123505, 51.23619292956198], [-0.5832517714340287, 51.235989644443045]]}}, {"type": "Feature", "properties": {"candidate_zone": 2}, "geometry": {"type": "LineString", "coordinates": [[-0.5832517714340287, 51.235989644443045], [-0.5828594298354933, 51.23530780901433]]}}, {"type": "Feature", "properties": {"candidate_zone": 2}, "geometry": {"type": "LineString", "coordinates": [[-0.5829726033873744, 51.235175923028734], [-0.5823046942297715, 51.234121496071154]]}}, {"type": "Feature", "properties": {"candidate_zone": 2}, "geometry": {"type": "LineString", "coordinates": [[-0.5815169397690934, 51.23565811248822], [-0.5828594298354933, 51.23530780901433]]}}, {"type": "Feature", "properties": {"candidate_zone": 2}, "geometry": {"type": "LineString", "coordinates": [[-0.5823046942297715, 51.234121496071154], [-0.5810848613143457, 51.23423100178573], [-0.5798999564216281, 51.23389434151026]]}}, {"type": "Feature", "properties": {"candidate_zone": 3}, "geometry": {"type": "LineString", "coordinates": [[-0.5772028942334089, 51.261917049841884], [-0.5779462484293976, 51.26239073724207], [-0.5783998924502348, 51.263140521844534], [-0.579034026678576, 51.26312753633761], [-0.5807120953970258, 51.26090338190497]]}}, {"type": "Feature", "properties": {"candidate_zone": 3}, "geometry": {"type": "LineString", "coordinates": [[-0.5807120953970258, 51.26090338190497], [-0.5804894446373383, 51.2592001263811]]}}, {"type": "Feature", "properties": {"candidate_zone": 3}, "geometry": {"type": "LineString", "coordinates": [[-0.5804894446373383, 51.2592001263811], [-0.5783513609606501, 51.258989866664955]]}}, {"type": "Feature", "properties": {"candidate_zone": 3}, "geometry": {"type": "LineString", "coordinates": [[-0.5803336976445671, 51.25250014409052], [-0.5804466647688546, 51.2524820371888]]}}, {"type": "Feature", "properties": {"candidate_zone": 3}, "geometry": {"type": "LineString", "coordinates": [[-0.5777666417451911, 51.25667010188763], [-0.57855018226467, 51.25595462509319], [-0.5799090555281934, 51.2539063898786], [-0.5803336976445671, 51.25250014409052]]}}, {"type": "Feature", "properties": {"candidate_zone": 3}, "geometry": {"type": "LineString", "coordinates": [[-0.5803336976445671, 51.25250014409052], [-0.579753641679263, 51.25239555692264], [-0.5791593586812074, 51.25248959650146]]}}, {"type": "Feature", "properties": {"candidate_zone": 2}, "geometry": {"type": "LineString", "coordinates": [[-0.5801686674450054, 51.22623480379602], [-0.5798937650756699, 51.226258673817625]]}}, {"type": "Feature", "properties": {"candidate_zone": 2}, "geometry": {"type": "LineString", "coordinates": [[-0.5782029676480612, 51.2284626279366], [-0.5787378601411812, 51.22841598452408], [-0.5794370790621716, 51.227984092865796], [-0.5826881489965804, 51.22773992662869], [-0.5833456651653506, 51.22728485511548], [-0.5831344763967883, 51.226907197324415], [-0.5826936461907279, 51.22686841378237], [-0.5816224512576252, 51.22642725375891], [-0.5801686674450054, 51.22623480379602]]}}, {"type": "Feature", "properties": {"candidate_zone": 2}, "geometry": {"type": "LineString", "coordinates": [[-0.5781648007510483, 51.234510568639756], [-0.5789996766227425, 51.23444416516432], [-0.5798999564216281, 51.23389434151026]]}}, {"type": "Feature", "properties": {"candidate_zone": 2}, "geometry": {"type": "LineString", "coordinates": [[-0.5798999564216281, 51.23389434151026], [-0.5790722251089878, 51.23331115001283]]}}, {"type": "Feature", "properties": {"candidate_zone": 3}, "geometry": {"type": "LineString", "coordinates": [[-0.5776628881063398, 51.254713379457634], [-0.5786828420376525, 51.25463349916833], [-0.5793220371841372, 51.25361313382548], [-0.5792973386375623, 51.25319953255311]]}}, {"type": "Feature", "properties": {"candidate_zone": 3}, "geometry": {"type": "LineString", "coordinates": [[-0.5792973386375623, 51.25319953255311], [-0.5791593586812074, 51.25248959650146]]}}, {"type": "Feature", "properties": {"candidate_zone": 2}, "geometry": {"type": "LineString", "coordinates": [[-0.5798937650756699, 51.226258673817625], [-0.5795865026518118, 51.225848671149635]]}}, {"type": "Feature", "properties": {"candidate_zone": 2}, "geometry": {"type": "LineString", "coordinates": [[-0.5795409242301742, 51.22652443918568], [-0.5785446077334255, 51.2262844497335], [-0.5784947519164332, 51.22606751546843], [-0.5788422052618364, 51.225840974383665], [-0.5795865026518118, 51.225848671149635]]}}, {"type": "Feature", "properties": {"candidate_zone": 3}, "geometry": {"type": "LineString", "coordinates": [[-0.5766891602292306, 51.25852388253108], [-0.5783513609606501, 51.258989866664955]]}}, {"type": "Feature", "properties": {"candidate_zone": 2}, "geometry": {"type": "LineString", "coordinates": [[-0.5790722251089878, 51.23331115001283], [-0.5785707183616217, 51.23354287887602]]}}, {"type": "Feature", "properties": {"candidate_zone": 2}, "geometry": {"type": "LineString", "coordinates": [[-0.5790722251089878, 51.23331115001283], [-0.578865637125738, 51.23128500550719]]}}, {"type": "Feature", "properties": {"candidate_zone": 2}, "geometry": {"type": "LineString", "coordinates": [[-0.578865637125738, 51.23128500550719], [-0.578673924745838, 51.230647021919374], [-0.5783186288486029, 51.230395337764314], [-0.5781409729192217, 51.2292944041046], [-0.5778225330007014, 51.2288752724577]]}}, {"type": "Feature", "properties": {"candidate_zone": 3}, "geometry": {"type": "LineString", "coordinates": [[-0.5780718891676484, 51.253129249321574], [-0.578153129628739, 51.25228220566479]]}}, {"type": "Feature", "properties": {"candidate_zone": 3}, "geometry": {"type": "LineString", "coordinates": [[-0.578153129628739, 51.25228220566479], [-0.576993139262658, 51.25199062881991], [-0.5766184637550613, 51.251758560988534]]}}, {"type": "Feature", "properties": {"candidate_zone": 3}, "geometry": {"type": "LineString", "coordinates": [[-0.5776628881063398, 51.254713379457634], [-0.5780718891676484, 51.253129249321574]]}}, {"type": "Feature", "properties": {"candidate_zone": 2}, "geometry": {"type": "LineString", "coordinates": [[-0.5785707183616217, 51.23354287887602], [-0.5781705176999892, 51.23312465774549], [-0.5777828998333409, 51.231961528546016], [-0.5774135115696688, 51.23174003711278]]}}, {"type": "Feature", "properties": {"candidate_zone": 2}, "geometry": {"type": "LineString", "coordinates": [[-0.5781648007510483, 51.234510568639756], [-0.5785050598640953, 51.233652343887265]]}}, {"type": "Feature", "properties": {"candidate_zone": 3}, "geometry": {"type": "LineString", "coordinates": [[-0.5766791273340136, 51.258496897389435], [-0.5777666417451911, 51.25667010188763]]}}, {"type": "Feature", "properties": {"candidate_zone": 0}, "geometry": {"type": "LineString", "coordinates": [[-0.5761205435659268, 51.24058404347698], [-0.5772972642208076, 51.24043190355094], [-0.5778815052481935, 51.240495893784605], [-0.5782824104176592, 51.24034277903036], [-0.578469493777267, 51.240209657164435], [-0.5782545274026994, 51.23945784789232]]}}, {"type": "Feature", "properties": {"candidate_zone": 3}, "geometry": {"type": "LineString", "coordinates": [[-0.577431658725236, 51.254831844624334], [-0.5776628881063398, 51.254713379457634]]}}, {"type": "Feature", "properties": {"candidate_zone": 3}, "geometry": {"type": "LineString", "coordinates": [[-0.577431658725236, 51.254831844624334], [-0.5765043069087856, 51.254749413595164], [-0.5761459770587539, 51.25456309383277]]}}, {"type": "Feature", "properties": {"candidate_zone": 2}, "geometry": {"type": "LineString", "coordinates": [[-0.5778225330007014, 51.2288752724577], [-0.5782029676480612, 51.2284626279366]]}}, {"type": "Feature", "properties": {"candidate_zone": 0}, "geometry": {"type": "LineString", "coordinates": [[-0.5716953287755709, 51.24606268570005], [-0.5746957727087879, 51.246125870210115], [-0.5769097845333635, 51.24593037108376], [-0.5773440007702244, 51.245683552991906]]}}, {"type": "Feature", "properties": {"candidate_zone": 2}, "geometry": {"type": "LineString", "coordinates": [[-0.5775162928909817, 51.23378258698572], [-0.5768736299490597, 51.232605282302636], [-0.5770544310319946, 51.232020140379895], [-0.5774135115696688, 51.23174003711278]]}}, {"type": "Feature", "properties": {"candidate_zone": 3}, "geometry": {"type": "LineString", "coordinates": [[-0.5759670052003337, 51.25871794748532], [-0.5766891602292306, 51.25852388253108]]}}, {"type": "Feature", "properties": {"candidate_zone": 3}, "geometry": {"type": "LineString", "coordinates": [[-0.5766891602292306, 51.25852388253108], [-0.5766791273340136, 51.258496897389435]]}}, {"type": "Feature", "properties": {"candidate_zone": 2}, "geometry": {"type": "LineString", "coordinates": [[-0.5774135115696688, 51.23174003711278], [-0.5774050741596075, 51.23156139962028]]}}, {"type": "Feature", "properties": {"candidate_zone": 0}, "geometry": {"type": "LineString", "coordinates": [[-0.5767717450270471, 51.244678938309214], [-0.572892226157306, 51.24455806557187], [-0.5717987381643521, 51.24467459583645]]}}, {"type": "Feature", "properties": {"candidate_zone": 0}, "geometry": {"type": "LineString", "coordinates": [[-0.5764386586408994, 51.247943844102444], [-0.575493081400084, 51.24740757274425], [-0.5717213638278852, 51.24673624235297]]}}, {"type": "Feature", "properties": {"candidate_zone": 3}, "geometry": {"type": "LineString", "coordinates": [[-0.5756410459498454, 51.25464422483052], [-0.5761459770587539, 51.25456309383277]]}}, {"type": "Feature", "properties": {"candidate_zone": 3}, "geometry": {"type": "LineString", "coordinates": [[-0.5761459770587539, 51.25456309383277], [-0.5763213615164572, 51.25412452279532], [-0.5761508028432095, 51.25376518492319], [-0.5742918376429307, 51.251989716524676]]}}, {"type": "Feature", "properties": {"candidate_zone": 3}, "geometry": {"type": "LineString", "coordinates": [[-0.575305018652452, 51.25963046015524], [-0.5759670052003337, 51.25871794748532]]}}, {"type": "Feature", "properties": {"candidate_zone": 3}, "geometry": {"type": "LineString", "coordinates": [[-0.5758139791457504, 51.25841604412888], [-0.5754879393483711, 51.25813227960379], [-0.5750542302607556, 51.257074005128224]]}}, {"type": "Feature", "properties": {"candidate_zone": 0}, "geometry": {"type": "LineString", "coordinates": [[-0.5762750102590604, 51.243367499526684], [-0.5755948981868838, 51.243439136627885], [-0.5743482656066065, 51.24319938073492], [-0.5740022509705355, 51.242870569933466]]}}, {"type": "Feature", "properties": {"candidate_zone": 0}, "geometry": {"type": "LineString", "coordinates": [[-0.5733612496166433, 51.242435009587965], [-0.5761625907837373, 51.24207106140468]]}}, {"type": "Feature", "properties": {"candidate_zone": 0}, "geometry": {"type": "LineString", "coordinates": [[-0.5761625907837373, 51.24207106140468], [-0.5761199007072507, 51.24163076324942]]}}, {"type": "Feature", "properties": {"candidate_zone": 0}, "geometry": {"type": "LineString", "coordinates": [[-0.5761210608326749, 51.242679391817106], [-0.5740022509705355, 51.242870569933466]]}}, {"type": "Feature", "properties": {"candidate_zone": 0}, "geometry": {"type": "LineString", "coordinates": [[-0.5733648803885693, 51.2417731268242], [-0.5761199007072507, 51.24163076324942]]}}, {"type": "Feature", "properties": {"candidate_zone": 0}, "geometry": {"type": "LineString", "coordinates": [[-0.5761199007072507, 51.24163076324942], [-0.5761205435659268, 51.24058404347698]]}}, {"type": "Feature", "properties": {"candidate_zone": 3}, "geometry": {"type": "LineString", "coordinates": [[-0.5750542302607556, 51.257074005128224], [-0.5746568411985187, 51.25640995396944], [-0.574670448489205, 51.255847893176345], [-0.5756410459498454, 51.25464422483052]]}}, {"type": "Feature", "properties": {"candidate_zone": 0}, "geometry": {"type": "LineString", "coordinates": [[-0.575929329246587, 51.24045150474291], [-0.5748633191494846, 51.24050840082993]]}}, {"type": "Feature", "properties": {"candidate_zone": 3}, "geometry": {"type": "LineString", "coordinates": [[-0.575305018652452, 51.25963046015524], [-0.5746709051224794, 51.25952581849315]]}}, {"type": "Feature", "properties": {"candidate_zone": 0}, "geometry": {"type": "LineString", "coordinates": [[-0.5733144609595989, 51.240065742815155], [-0.57578878898849, 51.23974329847749]]}}, {"type": "Feature", "properties": {"candidate_zone": 3}, "geometry": {"type": "LineString", "coordinates": [[-0.5733115935910778, 51.26029894870877], [-0.5740700310620962, 51.260356856316726], [-0.5746709051224794, 51.25952581849315]]}}, {"type": "Feature", "properties": {"candidate_zone": 0}, "geometry": {"type": "LineString", "coordinates": [[-0.5749676071464144, 51.23939818553748], [-0.5743014305289245, 51.238048230319535]]}}, {"type": "Feature", "properties": {"candidate_zone": 0}, "geometry": {"type": "LineString", "coordinates": [[-0.5733270428884766, 51.24117688598856], [-0.574815635606341, 51.24104342934652], [-0.5748633191494846, 51.24050840082993]]}}, {"type": "Feature", "properties": {"candidate_zone": 0}, "geometry": {"type": "LineString", "coordinates": [[-0.5733004387511254, 51.24052446194083], [-0.5748633191494846, 51.24050840082993]]}}, {"type": "Feature", "properties": {"candidate_zone": 0}, "geometry": {"type": "LineString", "coordinates": [[-0.5743014305289245, 51.238048230319535], [-0.5731994672527263, 51.23820614594433]]}}, {"type": "Feature", "properties": {"candidate_zone": 0}, "geometry": {"type": "LineString", "coordinates": [[-0.5740022509705355, 51.242870569933466], [-0.5735501259033422, 51.24277581422154]]}}, {"type": "Feature", "properties": {"candidate_zone": 3}, "geometry": {"type": "LineString", "coordinates": [[-0.5733115935910778, 51.26029894870877], [-0.5734608573901768, 51.25761362376606]]}}, {"type": "Feature", "properties": {"candidate_zone": 3}, "geometry": {"type": "LineString", "coordinates": [[-0.5732549076600444, 51.26117648676199], [-0.5733115935910778, 51.26029894870877]]}}, {"type": "Feature", "properties": {"candidate_zone": 3}, "geometry": {"type": "LineString", "coordinates": [[-0.5732534398988923, 51.26117711179781], [-0.5732549076600444, 51.26117648676199]]}}, {"type": "Feature", "properties": {"candidate_zone": 3}, "geometry": {"type": "LineString", "coordinates": [[-0.5732534398988923, 51.26117711179781], [-0.5715044249589254, 51.26071262549586], [-0.570219147886178, 51.26018974580555], [-0.5681489137757088, 51.258937549845605]]}}, {"type": "Feature", "properties": {"candidate_zone": 1}, "geometry": {"type": "LineString", "coordinates": [[-0.5738680323947888, 51.23422890108394], [-0.5733840767850322, 51.233617612164394]]}}, {"type": "Feature", "properties": {"candidate_zone": 0}, "geometry": {"type": "LineString", "coordinates": [[-0.5735501259033422, 51.24277581422154], [-0.5731777026964331, 51.24287625252567], [-0.5726876544264619, 51.2427068857535]]}}, {"type": "Feature", "properties": {"candidate_zone": 0}, "geometry": {"type": "LineString", "coordinates": [[-0.5735501259033422, 51.24277581422154], [-0.5733612496166433, 51.242435009587965]]}}, {"type": "Feature", "properties": {"candidate_zone": 0}, "geometry": {"type": "LineString", "coordinates": [[-0.5732367381190089, 51.24242129922305], [-0.5733612496166433, 51.242435009587965]]}}, {"type": "Feature", "properties": {"candidate_zone": 0}, "geometry": {"type": "LineString", "coordinates": [[-0.5728880514474274, 51.24201000148724], [-0.5733648803885693, 51.2417731268242]]}}, {"type": "Feature", "properties": {"candidate_zone": 0}, "geometry": {"type": "LineString", "coordinates": [[-0.5733648803885693, 51.2417731268242], [-0.5733270428884766, 51.24117688598856]]}}, {"type": "Feature", "properties": {"candidate_zone": 0}, "geometry": {"type": "LineString", "coordinates": [[-0.5733270428884766, 51.24117688598856], [-0.5731103918615005, 51.24070514903735], [-0.5733004387511254, 51.24052446194083]]}}, {"type": "Feature", "properties": {"candidate_zone": 0}, "geometry": {"type": "LineString", "coordinates": [[-0.5733004387511254, 51.24052446194083], [-0.5733144609595989, 51.240065742815155]]}}, {"type": "Feature", "properties": {"candidate_zone": 0}, "geometry": {"type": "LineString", "coordinates": [[-0.5733144609595989, 51.240065742815155], [-0.5729939506044444, 51.239836508327265]]}}, {"type": "Feature", "properties": {"candidate_zone": 0}, "geometry": {"type": "LineString", "coordinates": [[-0.5732367381190089, 51.24242129922305], [-0.5728880514474274, 51.24201000148724]]}}, {"type": "Feature", "properties": {"candidate_zone": 1}, "geometry": {"type": "LineString", "coordinates": [[-0.5733840767850322, 51.233617612164394], [-0.5729514071962636, 51.233629709786925], [-0.5722622525995126, 51.23334433316657], [-0.5713525997565273, 51.23344423955268], [-0.5702805174614691, 51.2332583909394]]}}, {"type": "Feature", "properties": {"candidate_zone": 0}, "geometry": {"type": "LineString", "coordinates": [[-0.5729939506044444, 51.239836508327265], [-0.5731650878588578, 51.23962171790082]]}}, {"type": "Feature", "properties": {"candidate_zone": 0}, "geometry": {"type": "LineString", "coordinates": [[-0.5731650878588578, 51.23962171790082], [-0.573138480038362, 51.23955253440995]]}}, {"type": "Feature", "properties": {"candidate_zone": 0}, "geometry": {"type": "LineString", "coordinates": [[-0.573138480038362, 51.23955253440995], [-0.5735545605906537, 51.238828719412176], [-0.5731994672527263, 51.23820614594433]]}}, {"type": "Feature", "properties": {"candidate_zone": 0}, "geometry": {"type": "LineString", "coordinates": [[-0.573138480038362, 51.23955253440995], [-0.5724020581033412, 51.238471959828466], [-0.5731699058430553, 51.238193846187784]]}}, {"type": "Feature", "properties": {"candidate_zone": 0}, "geometry": {"type": "LineString", "coordinates": [[-0.5719209692369888, 51.24223427511701], [-0.5728880514474274, 51.24201000148724]]}}, {"type": "Feature", "properties": {"candidate_zone": 0}, "geometry": {"type": "LineString", "coordinates": [[-0.5715003406762232, 51.24150953756424], [-0.5719536098417152, 51.241392480205214], [-0.572928303253977, 51.23985017837902]]}}, {"type": "Feature", "properties": {"candidate_zone": 0}, "geometry": {"type": "LineString", "coordinates": [[-0.5721859164783778, 51.24265990647447], [-0.5726876544264619, 51.2427068857535]]}}, {"type": "Feature", "properties": {"candidate_zone": 0}, "geometry": {"type": "LineString", "coordinates": [[-0.5709430557449948, 51.2380014486272], [-0.5720580307759044, 51.23775343479445], [-0.5726260767428043, 51.2374519218721]]}}, {"type": "Feature", "properties": {"candidate_zone": 3}, "geometry": {"type": "LineString", "coordinates": [[-0.5689414458079687, 51.25837306963449], [-0.5699038859933182, 51.2581463589061], [-0.5720007676357861, 51.25697564697953]]}}, {"type": "Feature", "properties": {"candidate_zone": 0}, "geometry": {"type": "LineString", "coordinates": [[-0.5721859164783778, 51.24265990647447], [-0.571534626525343, 51.24278120594384]]}}, {"type": "Feature", "properties": {"candidate_zone": 0}, "geometry": {"type": "LineString", "coordinates": [[-0.5714449003669512, 51.24224548343335], [-0.5719209692369888, 51.24223427511701]]}}, {"type": "Feature", "properties": {"candidate_zone": 0}, "geometry": {"type": "LineString", "coordinates": [[-0.5716953287755709, 51.24606268570005], [-0.5717987381643521, 51.24467459583645]]}}, {"type": "Feature", "properties": {"candidate_zone": 0}, "geometry": {"type": "LineString", "coordinates": [[-0.5717987381643521, 51.24467459583645], [-0.5713849342558394, 51.24327857821256]]}}, {"type": "Feature", "properties": {"candidate_zone": 0}, "geometry": {"type": "LineString", "coordinates": [[-0.5717213638278852, 51.24673624235297], [-0.5714336667761203, 51.246508066414684], [-0.5716953287755709, 51.24606268570005]]}}, {"type": "Feature", "properties": {"candidate_zone": 0}, "geometry": {"type": "LineString", "coordinates": [[-0.5715003406762232, 51.24150953756424], [-0.5712679303351966, 51.241215882697354], [-0.5713166814640571, 51.240767353800756], [-0.571691697949774, 51.239884174970946]]}}, {"type": "Feature", "properties": {"candidate_zone": 0}, "geometry": {"type": "LineString", "coordinates": [[-0.571534626525343, 51.24278120594384], [-0.5714136037795687, 51.24273003010165]]}}, {"type": "Feature", "properties": {"candidate_zone": 0}, "geometry": {"type": "LineString", "coordinates": [[-0.571224342883196, 51.241780274149654], [-0.5715003406762232, 51.24150953756424]]}}, {"type": "Feature", "properties": {"candidate_zone": 0}, "geometry": {"type": "LineString", "coordinates": [[-0.5714449003669512, 51.24224548343335], [-0.571191299559504, 51.242087286327695]]}}, {"type": "Feature", "properties": {"candidate_zone": 0}, "geometry": {"type": "LineString", "coordinates": [[-0.5696135818731448, 51.243129290287456], [-0.5698309380284754, 51.24282339376917], [-0.5701500507774988, 51.242747835368085], [-0.5714136037795687, 51.24273003010165]]}}, {"type": "Feature", "properties": {"candidate_zone": 0}, "geometry": {"type": "LineString", "coordinates": [[-0.5696135818731448, 51.243129290287456], [-0.5713849342558394, 51.24327857821256]]}}, {"type": "Feature", "properties": {"candidate_zone": 0}, "geometry": {"type": "LineString", "coordinates": [[-0.5712945549999132, 51.239686555803175], [-0.5696022334812324, 51.239926934757925]]}}, {"type": "Feature", "properties": {"candidate_zone": 0}, "geometry": {"type": "LineString", "coordinates": [[-0.5712945549999132, 51.239686555803175], [-0.5709430557449948, 51.2380014486272]]}}, {"type": "Feature", "properties": {"candidate_zone": 0}, "geometry": {"type": "LineString", "coordinates": [[-0.571191299559504, 51.242087286327695], [-0.571224342883196, 51.241780274149654]]}}, {"type": "Feature", "properties": {"candidate_zone": 0}, "geometry": {"type": "LineString", "coordinates": [[-0.571224342883196, 51.241780274149654], [-0.5703897982335335, 51.241662907956034]]}}, {"type": "Feature", "properties": {"candidate_zone": 0}, "geometry": {"type": "LineString", "coordinates": [[-0.56972327264979, 51.24201449288661], [-0.570196475825644, 51.24213619872106], [-0.571191299559504, 51.242087286327695]]}}, {"type": "Feature", "properties": {"candidate_zone": 1}, "geometry": {"type": "LineString", "coordinates": [[-0.570335530295266, 51.2345979791463], [-0.5709468086077074, 51.23453086073781]]}}, {"type": "Feature", "properties": {"candidate_zone": 1}, "geometry": {"type": "LineString", "coordinates": [[-0.5709468086077074, 51.23453086073781], [-0.5702831306937378, 51.23357306642123], [-0.5702805174614691, 51.2332583909394]]}}, {"type": "Feature", "properties": {"candidate_zone": 0}, "geometry": {"type": "LineString", "coordinates": [[-0.5697194048754598, 51.241779627415134], [-0.5703897982335335, 51.241662907956034]]}}, {"type": "Feature", "properties": {"candidate_zone": 0}, "geometry": {"type": "LineString", "coordinates": [[-0.5703897982335335, 51.241662907956034], [-0.5704049322224276, 51.2408946088592], [-0.5702785711128768, 51.24070157930986], [-0.5697648188616061, 51.240725211150725], [-0.5696022334812324, 51.239926934757925]]}}, {"type": "Feature", "properties": {"candidate_zone": 1}, "geometry": {"type": "LineString", "coordinates": [[-0.569276748860403, 51.23564909452796], [-0.5705298572197317, 51.23508068074498]]}}, {"type": "Feature", "properties": {"candidate_zone": 1}, "geometry": {"type": "LineString", "coordinates": [[-0.5705298572197317, 51.23508068074498], [-0.570335530295266, 51.2345979791463]]}}, {"type": "Feature", "properties": {"candidate_zone": 1}, "geometry": {"type": "LineString", "coordinates": [[-0.570335530295266, 51.2345979791463], [-0.5687796508812248, 51.23414214833076]]}}, {"type": "Feature", "properties": {"candidate_zone": 1}, "geometry": {"type": "LineString", "coordinates": [[-0.5702805174614691, 51.2332583909394], [-0.5697017595038494, 51.232322034437836]]}}, {"type": "Feature", "properties": {"candidate_zone": 0}, "geometry": {"type": "LineString", "coordinates": [[-0.5696135818731448, 51.243129290287456], [-0.5691089970380271, 51.24316162270776], [-0.5683118422507968, 51.24286218239504], [-0.5639236020814108, 51.24084208411525]]}}, {"type": "Feature", "properties": {"candidate_zone": 0}, "geometry": {"type": "LineString", "coordinates": [[-0.5678650911830392, 51.239830324853024], [-0.5696022334812324, 51.239926934757925]]}}, {"type": "Feature", "properties": {"candidate_zone": 1}, "geometry": {"type": "LineString", "coordinates": [[-0.5697017545859966, 51.23232203043904], [-0.5698129819967742, 51.231877026286945]]}}, {"type": "Feature", "properties": {"candidate_zone": 1}, "geometry": {"type": "LineString", "coordinates": [[-0.5698129819967742, 51.231877026286945], [-0.5695122592457447, 51.231257198642325]]}}, {"type": "Feature", "properties": {"candidate_zone": 3}, "geometry": {"type": "LineString", "coordinates": [[-0.5680739253380702, 51.258761853406114], [-0.5689414458079687, 51.25837306963449]]}}, {"type": "Feature", "properties": {"candidate_zone": 1}, "geometry": {"type": "LineString", "coordinates": [[-0.5695122592457447, 51.231257198642325], [-0.5672978433838501, 51.229177270618], [-0.5651690441441658, 51.22962426810903], [-0.5636233789425125, 51.22953255582325], [-0.5629987583776348, 51.22932484525405], [-0.5628890423573536, 51.2291039007844], [-0.5634719843911233, 51.22803857249745]]}}, {"type": "Feature", "properties": {"candidate_zone": 3}, "geometry": {"type": "LineString", "coordinates": [[-0.5681489137757088, 51.258937549845605], [-0.5680739253380702, 51.258761853406114]]}}, {"type": "Feature", "properties": {"candidate_zone": 1}, "geometry": {"type": "LineString", "coordinates": [[-0.567488805674962, 51.23556700865029], [-0.5687796508812248, 51.23414214833076]]}}, {"type": "Feature", "properties": {"candidate_zone": 1}, "geometry": {"type": "LineString", "coordinates": [[-0.5646575449379858, 51.2354120928001], [-0.5659804906529021, 51.23454133325289], [-0.5663762903585418, 51.23320201839055], [-0.5677667148097548, 51.233603679266814], [-0.5687796508812248, 51.23414214833076]]}}, {"type": "Feature", "properties": {"candidate_zone": 0}, "geometry": {"type": "LineString", "coordinates": [[-0.5678650911830392, 51.239830324853024], [-0.5675009846191588, 51.23907660680085], [-0.5650973802677376, 51.239083920287214]]}}, {"type": "Feature", "properties": {"candidate_zone": 1}, "geometry": {"type": "LineString", "coordinates": [[-0.5667981227294143, 51.23999621833238], [-0.5677105628305921, 51.23991960968577]]}}, {"type": "Feature", "properties": {"candidate_zone": 1}, "geometry": {"type": "LineString", "coordinates": [[-0.5666964981966819, 51.23589450454992], [-0.567488805674962, 51.23556700865029]]}}, {"type": "Feature", "properties": {"candidate_zone": 1}, "geometry": {"type": "LineString", "coordinates": [[-0.5663723683059222, 51.23694623737412], [-0.5668546573309403, 51.23685362837531], [-0.5672377988430236, 51.236584649679635]]}}, {"type": "Feature", "properties": {"candidate_zone": 1}, "geometry": {"type": "LineString", "coordinates": [[-0.5672377988430236, 51.236584649679635], [-0.5666964981966819, 51.23589450454992]]}}, {"type": "Feature", "properties": {"candidate_zone": 1}, "geometry": {"type": "LineString", "coordinates": [[-0.5667981227294143, 51.23999621833238], [-0.5664670798773863, 51.23989111821271], [-0.5653192196070765, 51.239972596302046], [-0.5644707697893513, 51.23971086340034]]}}, {"type": "Feature", "properties": {"candidate_zone": 1}, "geometry": {"type": "LineString", "coordinates": [[-0.5659285847480301, 51.23597992829386], [-0.5666964981966819, 51.23589450454992]]}}, {"type": "Feature", "properties": {"candidate_zone": 1}, "geometry": {"type": "LineString", "coordinates": [[-0.5663723683059222, 51.23694623737412], [-0.5656243711077041, 51.237263932464806]]}}, {"type": "Feature", "properties": {"candidate_zone": 1}, "geometry": {"type": "LineString", "coordinates": [[-0.5663723683059222, 51.23694623737412], [-0.5659285847480301, 51.23597992829386]]}}, {"type": "Feature", "properties": {"candidate_zone": 1}, "geometry": {"type": "LineString", "coordinates": [[-0.5659285847480301, 51.23597992829386], [-0.5650558751074396, 51.23592554300697]]}}, {"type": "Feature", "properties": {"candidate_zone": 1}, "geometry": {"type": "LineString", "coordinates": [[-0.5656243711077041, 51.237263932464806], [-0.5648499855835493, 51.23608767004468]]}}, {"type": "Feature", "properties": {"candidate_zone": 1}, "geometry": {"type": "LineString", "coordinates": [[-0.5627999797061753, 51.23739086451956], [-0.5655713850133837, 51.237581422316154]]}}, {"type": "Feature", "properties": {"candidate_zone": 1}, "geometry": {"type": "LineString", "coordinates": [[-0.5648499855835493, 51.23608767004468], [-0.5650558751074396, 51.23592554300697]]}}, {"type": "Feature", "properties": {"candidate_zone": 1}, "geometry": {"type": "LineString", "coordinates": [[-0.5633366249118025, 51.23642274327334], [-0.5648499855835493, 51.23608767004468]]}}, {"type": "Feature", "properties": {"candidate_zone": 1}, "geometry": {"type": "LineString", "coordinates": [[-0.5646575449379858, 51.2354120928001], [-0.5621143879317989, 51.234406738755204], [-0.5606312057543227, 51.233390944617646], [-0.5580766889356267, 51.23281711986524], [-0.5581258999472082, 51.233523101236685], [-0.5605610297460988, 51.23447636051175], [-0.5609843426369949, 51.234779659653285]]}}, {"type": "Feature", "properties": {"candidate_zone": 1}, "geometry": {"type": "LineString", "coordinates": [[-0.5644707697893513, 51.23971086340034], [-0.5644438202463007, 51.23966526878398]]}}, {"type": "Feature", "properties": {"candidate_zone": 1}, "geometry": {"type": "LineString", "coordinates": [[-0.5644438202463007, 51.23966526878398], [-0.5623990592762296, 51.238974195803706], [-0.5614697378128324, 51.23772060366094]]}}, {"type": "Feature", "properties": {"candidate_zone": 1}, "geometry": {"type": "LineString", "coordinates": [[-0.560978275823876, 51.24020867075939], [-0.5627789200842693, 51.24011260617854], [-0.5640184048508065, 51.24037527278149]]}}, {"type": "Feature", "properties": {"candidate_zone": 1}, "geometry": {"type": "LineString", "coordinates": [[-0.5626546488763741, 51.23677664189539], [-0.5633366249118025, 51.23642274327334]]}}, {"type": "Feature", "properties": {"candidate_zone": 1}, "geometry": {"type": "LineString", "coordinates": [[-0.5633366249118025, 51.23642274327334], [-0.5625519956303796, 51.23572195042116], [-0.5620679843648992, 51.23555044117163]]}}, {"type": "Feature", "properties": {"candidate_zone": 1}, "geometry": {"type": "LineString", "coordinates": [[-0.5614697378128324, 51.23772060366094], [-0.5627999797061753, 51.23739086451956]]}}, {"type": "Feature", "properties": {"candidate_zone": 1}, "geometry": {"type": "LineString", "coordinates": [[-0.5607871802427741, 51.243911103206564], [-0.5625647263504392, 51.24248364770254]]}}, {"type": "Feature", "properties": {"candidate_zone": 1}, "geometry": {"type": "LineString", "coordinates": [[-0.5625647263504392, 51.24248364770254], [-0.5597676116770394, 51.24097456575745]]}}, {"type": "Feature", "properties": {"candidate_zone": 1}, "geometry": {"type": "LineString", "coordinates": [[-0.5612513541422607, 51.23574816449572], [-0.5620679843648992, 51.23555044117163]]}}, {"type": "Feature", "properties": {"candidate_zone": 1}, "geometry": {"type": "LineString", "coordinates": [[-0.5620679843648992, 51.23555044117163], [-0.5618303903945173, 51.23522238160911], [-0.5609843426369949, 51.234779659653285]]}}, {"type": "Feature", "properties": {"candidate_zone": 1}, "geometry": {"type": "LineString", "coordinates": [[-0.5617715243634059, 51.23690743497313], [-0.561440128101147, 51.237050387752205]]}}, {"type": "Feature", "properties": {"candidate_zone": 1}, "geometry": {"type": "LineString", "coordinates": [[-0.5617715243634059, 51.23690743497313], [-0.5613769652819658, 51.2362033649833], [-0.561036549384262, 51.23599019784967]]}}, {"type": "Feature", "properties": {"candidate_zone": 1}, "geometry": {"type": "LineString", "coordinates": [[-0.5614697378128324, 51.23772060366094], [-0.5612310944593527, 51.237679230170706]]}}, {"type": "Feature", "properties": {"candidate_zone": 1}, "geometry": {"type": "LineString", "coordinates": [[-0.5611092392498087, 51.237446277970975], [-0.561440128101147, 51.237050387752205]]}}, {"type": "Feature", "properties": {"candidate_zone": 1}, "geometry": {"type": "LineString", "coordinates": [[-0.561440128101147, 51.237050387752205], [-0.5603998836598164, 51.23631039771625]]}}, {"type": "Feature", "properties": {"candidate_zone": 1}, "geometry": {"type": "LineString", "coordinates": [[-0.5601742049451057, 51.23778316124306], [-0.5612310944593527, 51.237679230170706]]}}, {"type": "Feature", "properties": {"candidate_zone": 1}, "geometry": {"type": "LineString", "coordinates": [[-0.5612310944593527, 51.237679230170706], [-0.5611092392498087, 51.237446277970975]]}}, {"type": "Feature", "properties": {"candidate_zone": 1}, "geometry": {"type": "LineString", "coordinates": [[-0.561036549384262, 51.23599019784967], [-0.5612513541422607, 51.23574816449572]]}}, {"type": "Feature", "properties": {"candidate_zone": 1}, "geometry": {"type": "LineString", "coordinates": [[-0.5612513541422607, 51.23574816449572], [-0.5604532770282826, 51.235146424242636], [-0.5609843426369949, 51.234779659653285]]}}, {"type": "Feature", "properties": {"candidate_zone": 1}, "geometry": {"type": "LineString", "coordinates": [[-0.5597495304215141, 51.240850184154176], [-0.560978275823876, 51.24020867075939]]}}, {"type": "Feature", "properties": {"candidate_zone": 1}, "geometry": {"type": "LineString", "coordinates": [[-0.560978275823876, 51.24020867075939], [-0.5602671813594942, 51.239832762381845], [-0.5589112893103251, 51.239814647268624], [-0.5574348688459787, 51.23832336495185]]}}, {"type": "Feature", "properties": {"candidate_zone": 1}, "geometry": {"type": "LineString", "coordinates": [[-0.5603998836598164, 51.23631039771625], [-0.5606022605065879, 51.236077870168785], [-0.561036549384262, 51.23599019784967]]}}, {"type": "Feature", "properties": {"candidate_zone": 1}, "geometry": {"type": "LineString", "coordinates": [[-0.5597598949727476, 51.23664323061923], [-0.5603998836598164, 51.23631039771625]]}}, {"type": "Feature", "properties": {"candidate_zone": 1}, "geometry": {"type": "LineString", "coordinates": [[-0.5586604987346524, 51.23799201936668], [-0.5598906418669348, 51.23795389520744], [-0.5601742049451057, 51.23778316124306]]}}, {"type": "Feature", "properties": {"candidate_zone": 1}, "geometry": {"type": "LineString", "coordinates": [[-0.5601742049451057, 51.23778316124306], [-0.5594187923504407, 51.23730091527341]]}}, {"type": "Feature", "properties": {"candidate_zone": 1}, "geometry": {"type": "LineString", "coordinates": [[-0.5597676116770394, 51.24097456575745], [-0.5592596038882663, 51.24131065066207], [-0.5584364854428223, 51.24088487854831]]}}, {"type": "Feature", "properties": {"candidate_zone": 1}, "geometry": {"type": "LineString", "coordinates": [[-0.5584364854428223, 51.24088487854831], [-0.5590677457554067, 51.24064091252059], [-0.5597495304215141, 51.240850184154176]]}}, {"type": "Feature", "properties": {"candidate_zone": 1}, "geometry": {"type": "LineString", "coordinates": [[-0.5597598949727476, 51.23664323061923], [-0.5594113876911649, 51.236466956835216]]}}, {"type": "Feature", "properties": {"candidate_zone": 1}, "geometry": {"type": "LineString", "coordinates": [[-0.5594187923504407, 51.23730091527341], [-0.5586901422737981, 51.23686984963298], [-0.5579784810508736, 51.236748961220634]]}}, {"type": "Feature", "properties": {"candidate_zone": 1}, "geometry": {"type": "LineString", "coordinates": [[-0.5594113876911649, 51.236466956835216], [-0.5596744254842223, 51.23605668104304], [-0.5594795383251155, 51.23584663403178], [-0.557561290300639, 51.234937018564885], [-0.5550034602578672, 51.23504180071676], [-0.5549766495304075, 51.23592793524902]]}}, {"type": "Feature", "properties": {"candidate_zone": 1}, "geometry": {"type": "LineString", "coordinates": [[-0.5586604987346524, 51.23799201936668], [-0.5574348688459787, 51.23832336495185]]}}, {"type": "Feature", "properties": {"candidate_zone": 1}, "geometry": {"type": "LineString", "coordinates": [[-0.5586717851769204, 51.23755064588477], [-0.5581287497774311, 51.23714368838623], [-0.5579784810508736, 51.236748961220634]]}}, {"type": "Feature", "properties": {"candidate_zone": 1}, "geometry": {"type": "LineString", "coordinates": [[-0.5579784810508736, 51.236748961220634], [-0.5573354385856586, 51.236394482449874], [-0.5570878823527339, 51.236024378492935]]}}, {"type": "Feature", "properties": {"candidate_zone": 1}, "geometry": {"type": "LineString", "coordinates": [[-0.5574348688459787, 51.23832336495185], [-0.5573720487405319, 51.238303392133005]]}}, {"type": "Feature", "properties": {"candidate_zone": 1}, "geometry": {"type": "LineString", "coordinates": [[-0.5573720487405319, 51.238303392133005], [-0.555451398467728, 51.2386181150548]]}}, {"type": "Feature", "properties": {"candidate_zone": 1}, "geometry": {"type": "LineString", "coordinates": [[-0.5573720487405319, 51.238303392133005], [-0.55518553245093, 51.23605729567026]]}}, {"type": "Feature", "properties": {"candidate_zone": 1}, "geometry": {"type": "LineString", "coordinates": [[-0.5554089176323304, 51.238665641026564], [-0.555451398467728, 51.2386181150548]]}}, {"type": "Feature", "properties": {"candidate_zone": 1}, "geometry": {"type": "LineString", "coordinates": [[-0.553285535401733, 51.239233212447836], [-0.5554089176323304, 51.238665641026564]]}}, {"type": "Feature", "properties": {"candidate_zone": 1}, "geometry": {"type": "LineString", "coordinates": [[-0.55385015851616, 51.255755052865204], [-0.5545163022585445, 51.25557200526247]]}}, {"type": "Feature", "properties": {"candidate_zone": 1}, "geometry": {"type": "LineString", "coordinates": [[-0.5545163022585445, 51.25557200526247], [-0.554844057810605, 51.25539229764774], [-0.5555452045925418, 51.255337448213666], [-0.5554855886380652, 51.25479385876767], [-0.5557731254015169, 51.254316952839005], [-0.5546671073514574, 51.25409311767316], [-0.553153205927337, 51.25311079974438]]}}, {"type": "Feature", "properties": {"candidate_zone": 1}, "geometry": {"type": "LineString", "coordinates": [[-0.5549766495304075, 51.23592793524902], [-0.5525103256034976, 51.23618969932344]]}}, {"type": "Feature", "properties": {"candidate_zone": 1}, "geometry": {"type": "LineString", "coordinates": [[-0.55385015851616, 51.255755052865204], [-0.5530452800556901, 51.2557051071878], [-0.5527367036302837, 51.2552929586911], [-0.5519055405831133, 51.255292781071944]]}}, {"type": "Feature", "properties": {"candidate_zone": 1}, "geometry": {"type": "LineString", "coordinates": [[-0.5534379709279509, 51.243196569892866], [-0.5541295471356921, 51.24301378814752]]}}, {"type": "Feature", "properties": {"candidate_zone": 1}, "geometry": {"type": "LineString", "coordinates": [[-0.5514742983340971, 51.24674220062797], [-0.5531378583025213, 51.24588634402631], [-0.5551797343075326, 51.24436096844126], [-0.5550818146810346, 51.24390341775788], [-0.5541295471356921, 51.24301378814752]]}}, {"type": "Feature", "properties": {"candidate_zone": 1}, "geometry": {"type": "LineString", "coordinates": [[-0.5494352237802105, 51.26014547163935], [-0.5506419775965634, 51.25889536445889], [-0.5511085901389674, 51.25881005539068], [-0.5523872237206738, 51.257724946804814], [-0.552828577102085, 51.25762236899941], [-0.5531616338463975, 51.25716147291863]]}}, {"type": "Feature", "properties": {"candidate_zone": 1}, "geometry": {"type": "LineString", "coordinates": [[-0.5531616338463975, 51.25716147291863], [-0.5531161535030854, 51.25699181290648]]}}, {"type": "Feature", "properties": {"candidate_zone": 1}, "geometry": {"type": "LineString", "coordinates": [[-0.5531161535030854, 51.25699181290648], [-0.5524332572322662, 51.25690695632222], [-0.551287363906789, 51.257011211612586], [-0.550763438096907, 51.2567273467164], [-0.5506452168954571, 51.25646708033329], [-0.5499090320787883, 51.256420889884375], [-0.5497084780103936, 51.25618133391311]]}}, {"type": "Feature", "properties": {"candidate_zone": 1}, "geometry": {"type": "LineString", "coordinates": [[-0.553153205927337, 51.25311079974438], [-0.55153402059373, 51.25268929473576]]}}, {"type": "Feature", "properties": {"candidate_zone": 1}, "geometry": {"type": "LineString", "coordinates": [[-0.5534379709279509, 51.243196569892866], [-0.5519356517535047, 51.24188829582128]]}}, {"type": "Feature", "properties": {"candidate_zone": 1}, "geometry": {"type": "LineString", "coordinates": [[-0.553285535401733, 51.239233212447836], [-0.553252258706531, 51.239226757354984]]}}, {"type": "Feature", "properties": {"candidate_zone": 1}, "geometry": {"type": "LineString", "coordinates": [[-0.5515788166938888, 51.239971140083306], [-0.553252258706531, 51.239226757354984]]}}, {"type": "Feature", "properties": {"candidate_zone": 1}, "geometry": {"type": "LineString", "coordinates": [[-0.553252258706531, 51.239226757354984], [-0.5515778787245121, 51.23785812595512], [-0.5498785693478803, 51.23846975828573]]}}, {"type": "Feature", "properties": {"candidate_zone": 1}, "geometry": {"type": "LineString", "coordinates": [[-0.55153402059373, 51.25268929473576], [-0.5515748433022787, 51.25221798597166], [-0.5525380461381313, 51.25115469769149], [-0.5526348491549945, 51.250803472893764]]}}, {"type": "Feature", "properties": {"candidate_zone": 1}, "geometry": {"type": "LineString", "coordinates": [[-0.5526348491549945, 51.250803472893764], [-0.5512536774310673, 51.2504095587944], [-0.549978503097049, 51.24945060026033], [-0.5525853348649562, 51.24809494977571]]}}, {"type": "Feature", "properties": {"candidate_zone": 1}, "geometry": {"type": "LineString", "coordinates": [[-0.5525853348649562, 51.24809494977571], [-0.5524159455044433, 51.24772473241907], [-0.551546923214061, 51.24697167279349]]}}, {"type": "Feature", "properties": {"candidate_zone": 1}, "geometry": {"type": "LineString", "coordinates": [[-0.5525103256034976, 51.23618969932344], [-0.548004235928577, 51.23633635732092], [-0.5474945864376515, 51.23645364721297], [-0.5475315362947645, 51.236778393785244], [-0.5498785693478803, 51.23846975828573]]}}, {"type": "Feature", "properties": {"candidate_zone": 1}, "geometry": {"type": "LineString", "coordinates": [[-0.5519356517535047, 51.24188829582128], [-0.5505419874524737, 51.240400844885635]]}}, {"type": "Feature", "properties": {"candidate_zone": 1}, "geometry": {"type": "LineString", "coordinates": [[-0.5482711785417047, 51.25560137563791], [-0.5498719508876433, 51.254522958898995], [-0.5499393348474466, 51.254174084462555], [-0.55153402059373, 51.25268929473576]]}}, {"type": "Feature", "properties": {"candidate_zone": 1}, "geometry": {"type": "LineString", "coordinates": [[-0.5496885291737904, 51.247989959031464], [-0.551546923214061, 51.24697167279349]]}}, {"type": "Feature", "properties": {"candidate_zone": 1}, "geometry": {"type": "LineString", "coordinates": [[-0.551546923214061, 51.24697167279349], [-0.5514742983340971, 51.24674220062797]]}}, {"type": "Feature", "properties": {"candidate_zone": 1}, "geometry": {"type": "LineString", "coordinates": [[-0.5515593028382269, 51.2400162308756], [-0.5515788166938888, 51.239971140083306]]}}, {"type": "Feature", "properties": {"candidate_zone": 1}, "geometry": {"type": "LineString", "coordinates": [[-0.5515788166938888, 51.239971140083306], [-0.5498785693478803, 51.23846975828573]]}}, {"type": "Feature", "properties": {"candidate_zone": 1}, "geometry": {"type": "LineString", "coordinates": [[-0.5505419874524737, 51.240400844885635], [-0.5515593028382269, 51.2400162308756]]}}, {"type": "Feature", "properties": {"candidate_zone": 1}, "geometry": {"type": "LineString", "coordinates": [[-0.5509039590408313, 51.246490467352366], [-0.550768291535746, 51.24613179488952], [-0.5503168663750203, 51.24584038512192]]}}, {"type": "Feature", "properties": {"candidate_zone": 1}, "geometry": {"type": "LineString", "coordinates": [[-0.5465147658952055, 51.24146558834823], [-0.5481660739751286, 51.24078200572444], [-0.5490044041033376, 51.24070117268981], [-0.5499335502253045, 51.2403873983815], [-0.5505419874524737, 51.240400844885635]]}}, {"type": "Feature", "properties": {"candidate_zone": 1}, "geometry": {"type": "LineString", "coordinates": [[-0.5503168663750203, 51.24584038512192], [-0.5503077312554189, 51.2456422828709], [-0.5493408079338917, 51.24526750972179]]}}, {"type": "Feature", "properties": {"candidate_zone": 1}, "geometry": {"type": "LineString", "coordinates": [[-0.5494352237802105, 51.26014547163935], [-0.5450986554764791, 51.258885071731115]]}}, {"type": "Feature", "properties": {"candidate_zone": 1}, "geometry": {"type": "LineString", "coordinates": [[-0.5496885291737904, 51.247989959031464], [-0.5484861491138043, 51.248805170262976], [-0.547990327173968, 51.24884108248009], [-0.5464153005819953, 51.24790205746316]]}}, {"type": "Feature", "properties": {"candidate_zone": 1}, "geometry": {"type": "LineString", "coordinates": [[-0.5492315500086565, 51.24532236284707], [-0.5493408079338917, 51.24526750972179]]}}, {"type": "Feature", "properties": {"candidate_zone": 1}, "geometry": {"type": "LineString", "coordinates": [[-0.5493408079338917, 51.24526750972179], [-0.5492839266834695, 51.24502791103352], [-0.5488707824414486, 51.2448045668048]]}}, {"type": "Feature", "properties": {"candidate_zone": 1}, "geometry": {"type": "LineString", "coordinates": [[-0.5488707824414486, 51.2448045668048], [-0.5477663210655342, 51.243421572166824]]}}, {"type": "Feature", "properties": {"candidate_zone": 1}, "geometry": {"type": "LineString", "coordinates": [[-0.5450986554764791, 51.258885071731115], [-0.5483045308464948, 51.2556946991286]]}}, {"type": "Feature", "properties": {"candidate_zone": 1}, "geometry": {"type": "LineString", "coordinates": [[-0.5483045308464948, 51.2556946991286], [-0.5482711785417047, 51.25560137563791]]}}, {"type": "Feature", "properties": {"candidate_zone": 1}, "geometry": {"type": "LineString", "coordinates": [[-0.5482711785417047, 51.25560137563791], [-0.5475164680656646, 51.25517247912268]]}}, {"type": "Feature", "properties": {"candidate_zone": 1}, "geometry": {"type": "LineString", "coordinates": [[-0.5464153005819953, 51.24790205746316], [-0.5480251310035588, 51.246824151160915]]}}, {"type": "Feature", "properties": {"candidate_zone": 1}, "geometry": {"type": "LineString", "coordinates": [[-0.5455733155617772, 51.25658833434683], [-0.5475164680656646, 51.25517247912268]]}}, {"type": "Feature", "properties": {"candidate_zone": 1}, "geometry": {"type": "LineString", "coordinates": [[-0.5475164680656646, 51.25517247912268], [-0.5464456490694252, 51.25415616964028], [-0.5458437896166385, 51.253949916276966]]}}, {"type": "Feature", "properties": {"candidate_zone": 1}, "geometry": {"type": "LineString", "coordinates": [[-0.5477663210655342, 51.243421572166824], [-0.5476112854836854, 51.2426835895469], [-0.5473202725535727, 51.24257684294726]]}}, {"type": "Feature", "properties": {"candidate_zone": 1}, "geometry": {"type": "LineString", "coordinates": [[-0.5473202725535727, 51.24257684294726], [-0.5465147658952055, 51.24146558834823]]}}, {"type": "Feature", "properties": {"candidate_zone": 1}, "geometry": {"type": "LineString", "coordinates": [[-0.5464153005819953, 51.24790205746316], [-0.5458204121568102, 51.24755326899698], [-0.5458212964573987, 51.24710251298307], [-0.5459810927881192, 51.24660725303948], [-0.5465894114803327, 51.24606189462152]]}}, {"type": "Feature", "properties": {"candidate_zone": 1}, "geometry": {"type": "LineString", "coordinates": [[-0.5462772908535416, 51.24142940580654], [-0.5465147658952055, 51.24146558834823]]}}, {"type": "Feature", "properties": {"candidate_zone": 1}, "geometry": {"type": "LineString", "coordinates": [[-0.5452305410339845, 51.24159343168863], [-0.5462772908535416, 51.24142940580654]]}}, {"type": "Feature", "properties": {"candidate_zone": 1}, "geometry": {"type": "LineString", "coordinates": [[-0.5462772908535416, 51.24142940580654], [-0.5458503397571612, 51.24108530272791], [-0.5451860405796243, 51.241010840972095]]}}, {"type": "Feature", "properties": {"candidate_zone": 1}, "geometry": {"type": "LineString", "coordinates": [[-0.5439790640233786, 51.256183145368844], [-0.5431689393128029, 51.255959957793735], [-0.5427784524331779, 51.255213453001815], [-0.5418502012437356, 51.25484934224421], [-0.5415926859664694, 51.25464730649263], [-0.541708863337259, 51.25446930040454], [-0.5427950869620682, 51.25388164788809], [-0.5433552877183049, 51.253787892439334], [-0.5436062291295285, 51.25343811035148], [-0.5442378682365568, 51.25313790155743], [-0.5458437896166385, 51.253949916276966]]}}, {"type": "Feature", "properties": {"candidate_zone": 1}, "geometry": {"type": "LineString", "coordinates": [[-0.5432328751705963, 51.25735662703927], [-0.5444374392253737, 51.25764971989239], [-0.5454476058277656, 51.256874324404755], [-0.5455733155617772, 51.25658833434683]]}}, {"type": "Feature", "properties": {"candidate_zone": 1}, "geometry": {"type": "LineString", "coordinates": [[-0.5450450659839972, 51.258895920548824], [-0.5450986554764791, 51.258885071731115]]}}, {"type": "Feature", "properties": {"candidate_zone": 1}, "geometry": {"type": "LineString", "coordinates": [[-0.544072889165731, 51.26017999619067], [-0.5450450659839972, 51.258895920548824]]}}, {"type": "Feature", "properties": {"candidate_zone": 1}, "geometry": {"type": "LineString", "coordinates": [[-0.5449276749037647, 51.250653931324905], [-0.5467409093056089, 51.249464364565945], [-0.545359767520076, 51.24863758044542]]}}, {"type": "Feature", "properties": {"candidate_zone": 1}, "geometry": {"type": "LineString", "coordinates": [[-0.545359767520076, 51.24863758044542], [-0.545092209463203, 51.24752754267869], [-0.5438598648244951, 51.24645979727128]]}}, {"type": "Feature", "properties": {"candidate_zone": 1}, "geometry": {"type": "LineString", "coordinates": [[-0.5420775466730893, 51.24240426976366], [-0.5425767595954815, 51.24241809062509], [-0.543132964840017, 51.24214068221949], [-0.5452305410339845, 51.24159343168863]]}}, {"type": "Feature", "properties": {"candidate_zone": 1}, "geometry": {"type": "LineString", "coordinates": [[-0.5437987387330833, 51.2513829981649], [-0.5449276749037647, 51.250653931324905]]}}, {"type": "Feature", "properties": {"candidate_zone": 1}, "geometry": {"type": "LineString", "coordinates": [[-0.5415194741349993, 51.26214180031361], [-0.5432148831010234, 51.26054157764638], [-0.544072889165731, 51.26017999619067]]}}, {"type": "Feature", "properties": {"candidate_zone": 1}, "geometry": {"type": "LineString", "coordinates": [[-0.540834929386092, 51.252493862107556], [-0.5411545522329244, 51.25297419781277], [-0.5414814916251595, 51.25303161235413], [-0.5437719083009721, 51.25172678445423], [-0.5437987387330833, 51.2513829981649]]}}, {"type": "Feature", "properties": {"candidate_zone": 1}, "geometry": {"type": "LineString", "coordinates": [[-0.5437987387330833, 51.2513829981649], [-0.5435089160460334, 51.25129885319978]]}}, {"type": "Feature", "properties": {"candidate_zone": 1}, "geometry": {"type": "LineString", "coordinates": [[-0.5438598648244951, 51.24645979727128], [-0.5426995892561296, 51.24653692070852], [-0.5422066846930761, 51.24638208448748]]}}, {"type": "Feature", "properties": {"candidate_zone": 1}, "geometry": {"type": "LineString", "coordinates": [[-0.540834929386092, 51.252493862107556], [-0.541367229842118, 51.25231787102821], [-0.5423554673865096, 51.251584055725075], [-0.5435089160460334, 51.25129885319978]]}}, {"type": "Feature", "properties": {"candidate_zone": 1}, "geometry": {"type": "LineString", "coordinates": [[-0.5435089160460334, 51.25129885319978], [-0.5424273791458125, 51.25012165561919], [-0.5420385610144697, 51.250046795876536], [-0.5410706269406008, 51.25031073161617]]}}, {"type": "Feature", "properties": {"candidate_zone": 1}, "geometry": {"type": "LineString", "coordinates": [[-0.5422066846930761, 51.24638208448748], [-0.5406335785605132, 51.24717233293302], [-0.5393949788073952, 51.24703277543815], [-0.5365985605549694, 51.24374288856497]]}}, {"type": "Feature", "properties": {"candidate_zone": 1}, "geometry": {"type": "LineString", "coordinates": [[-0.5422066846930761, 51.24638208448748], [-0.5429028777626072, 51.2455916072604], [-0.5430805193010189, 51.244950699374684], [-0.5412494426487826, 51.243202467503465], [-0.5410843782122389, 51.2428041444534]]}}, {"type": "Feature", "properties": {"candidate_zone": 1}, "geometry": {"type": "LineString", "coordinates": [[-0.5415194741349993, 51.26214180031361], [-0.5382053327135036, 51.260861979823595]]}}, {"type": "Feature", "properties": {"candidate_zone": 1}, "geometry": {"type": "LineString", "coordinates": [[-0.5410843782122389, 51.2428041444534], [-0.5420775466730893, 51.24240426976366]]}}, {"type": "Feature", "properties": {"candidate_zone": 1}, "geometry": {"type": "LineString", "coordinates": [[-0.5420775466730893, 51.24240426976366], [-0.541278177157462, 51.241489001077845]]}}, {"type": "Feature", "properties": {"candidate_zone": 1}, "geometry": {"type": "LineString", "coordinates": [[-0.5410706269406008, 51.25031073161617], [-0.5393128588058433, 51.24914950771777], [-0.5390181601718473, 51.249114917193374]]}}, {"type": "Feature", "properties": {"candidate_zone": 1}, "geometry": {"type": "LineString", "coordinates": [[-0.5391221576885173, 51.24216765109411], [-0.5383938657760152, 51.24128841452793], [-0.5400569780148978, 51.24072618969087], [-0.5406723579666468, 51.24059249379954], [-0.541278177157462, 51.241489001077845]]}}, {"type": "Feature", "properties": {"candidate_zone": 1}, "geometry": {"type": "LineString", "coordinates": [[-0.5396498593153127, 51.242983752617675], [-0.5410843782122389, 51.2428041444534]]}}, {"type": "Feature", "properties": {"candidate_zone": 1}, "geometry": {"type": "LineString", "coordinates": [[-0.5382053327135036, 51.260861979823595], [-0.5398709097858888, 51.25876660220242], [-0.5393215461075179, 51.25833853514524]]}}, {"type": "Feature", "properties": {"candidate_zone": 1}, "geometry": {"type": "LineString", "coordinates": [[-0.5384336056727431, 51.24322860860293], [-0.5396498593153127, 51.242983752617675]]}}, {"type": "Feature", "properties": {"candidate_zone": 1}, "geometry": {"type": "LineString", "coordinates": [[-0.5396498593153127, 51.242983752617675], [-0.5391221576885173, 51.24216765109411]]}}, {"type": "Feature", "properties": {"candidate_zone": 1}, "geometry": {"type": "LineString", "coordinates": [[-0.5390181601718473, 51.249114917193374], [-0.5377084209366559, 51.24880740779303]]}}, {"type": "Feature", "properties": {"candidate_zone": 1}, "geometry": {"type": "LineString", "coordinates": [[-0.5384336056727431, 51.24322860860293], [-0.5366759719623517, 51.24101992182433], [-0.5348921545822057, 51.242117563948945]]}}, {"type": "Feature", "properties": {"candidate_zone": 1}, "geometry": {"type": "LineString", "coordinates": [[-0.533638601045895, 51.24439681534682], [-0.5359347501658727, 51.24376849361082]]}}, {"type": "Feature", "properties": {"candidate_zone": 1}, "geometry": {"type": "LineString", "coordinates": [[-0.5359347501658727, 51.24376849361082], [-0.5350775355564032, 51.24271484479673], [-0.5348921545822057, 51.242117563948945]]}}, {"type": "Feature", "properties": {"candidate_zone": 1}, "geometry": {"type": "LineString", "coordinates": [[-0.533638601045895, 51.24439681534682], [-0.5322331430851177, 51.24277368704947], [-0.5333871242358903, 51.242455506845275], [-0.5328141080374034, 51.24081339567649], [-0.5328098236301761, 51.24035664882008], [-0.5331093533692786, 51.24015166982153], [-0.533788102984688, 51.24021909080172], [-0.5344108873480165, 51.24168802618262], [-0.5348921545822057, 51.242117563948945]]}}, {"type": "Feature", "properties": {"candidate_zone": 1}, "geometry": {"type": "LineString", "coordinates": [[-0.5309586698685952, 51.24571074861212], [-0.533638601045895, 51.24439681534682]]}}, {"type": "Feature", "properties": {"candidate_zone": 1}, "geometry": {"type": "LineString", "coordinates": [[-0.5326001175001045, 51.24708046177107], [-0.5318129059746344, 51.24754898012217], [-0.5312466306879569, 51.24746791046585], [-0.5311132597219348, 51.24720103562734], [-0.5316058270148754, 51.24645852729644]]}}, {"type": "Feature", "properties": {"candidate_zone": 1}, "geometry": {"type": "LineString", "coordinates": [[-0.5316058270148754, 51.24645852729644], [-0.5315767875639125, 51.24633159951055]]}}, {"type": "Feature", "properties": {"candidate_zone": 1}, "geometry": {"type": "LineString", "coordinates": [[-0.5315767875639125, 51.24633159951055], [-0.5309586698685952, 51.24571074861212]]}}, {"type": "Feature", "properties": {"candidate_zone": 1}, "geometry": {"type": "LineString", "coordinates": [[-0.531024649829508, 51.24979509880904], [-0.527834614434498, 51.246435837789]]}}, {"type": "Feature", "properties": {"candidate_zone": 1}, "geometry": {"type": "LineString", "coordinates": [[-0.5290635225842713, 51.24606497715523], [-0.5309586698685952, 51.24571074861212]]}}, {"type": "Feature", "properties": {"candidate_zone": 1}, "geometry": {"type": "LineString", "coordinates": [[-0.5290635225842713, 51.24606497715523], [-0.5286126509444542, 51.2452351213981], [-0.5284242345079362, 51.245112798231176], [-0.5278705161438947, 51.245184232700396], [-0.5273534004443895, 51.24546939335951], [-0.5276960892816944, 51.246419707323]]}}, {"type": "Feature", "properties": {"candidate_zone": 1}, "geometry": {"type": "LineString", "coordinates": [[-0.5276960892816944, 51.246419707323], [-0.527834614434498, 51.246435837789]]}}]}